<?xml version="1.0" encoding="UTF-8"?>
<kml xmlns="http://www.opengis.net/kml/2.2" xmlns:gx="http://www.google.com/kml/ext/2.2" xmlns:kml="http://www.opengis.net/kml/2.2" xmlns:atom="http://www.w3.org/2005/Atom">
<Document>
	<name>Hub-Centers.kmz</name>
	<StyleMap id="m_ylw-pushpin">
		<Pair>
			<key>normal</key>
			<styleUrl>#s_ylw-pushpin0</styleUrl>
		</Pair>
		<Pair>
			<key>highlight</key>
			<styleUrl>#s_ylw-pushpin_hl1</styleUrl>
		</Pair>
	</StyleMap>
	<StyleMap id="m_ylw-pushpin15">
		<Pair>
			<key>normal</key>
			<styleUrl>#s_ylw-pushpin19</styleUrl>
		</Pair>
		<Pair>
			<key>highlight</key>
			<styleUrl>#s_ylw-pushpin_hl16</styleUrl>
		</Pair>
	</StyleMap>
	<StyleMap id="msn_ylw-pushpin">
		<Pair>
			<key>normal</key>
			<styleUrl>#sn_ylw-pushpin16</styleUrl>
		</Pair>
		<Pair>
			<key>highlight</key>
			<styleUrl>#sh_ylw-pushpin2</styleUrl>
		</Pair>
	</StyleMap>
	<StyleMap id="msn_ylw-pushpin0">
		<Pair>
			<key>normal</key>
			<styleUrl>#sn_ylw-pushpin5</styleUrl>
		</Pair>
		<Pair>
			<key>highlight</key>
			<styleUrl>#sh_ylw-pushpin15</styleUrl>
		</Pair>
	</StyleMap>
	<StyleMap id="msn_ylw-pushpin111">
		<Pair>
			<key>normal</key>
			<styleUrl>#sn_ylw-pushpin121</styleUrl>
		</Pair>
		<Pair>
			<key>highlight</key>
			<styleUrl>#sh_ylw-pushpin211</styleUrl>
		</Pair>
	</StyleMap>
	<StyleMap id="msn_ylw-pushpin12">
		<Pair>
			<key>normal</key>
			<styleUrl>#sn_ylw-pushpin4</styleUrl>
		</Pair>
		<Pair>
			<key>highlight</key>
			<styleUrl>#sh_ylw-pushpin0</styleUrl>
		</Pair>
	</StyleMap>
	<StyleMap id="msn_ylw-pushpin122">
		<Pair>
			<key>normal</key>
			<styleUrl>#sn_ylw-pushpin44</styleUrl>
		</Pair>
		<Pair>
			<key>highlight</key>
			<styleUrl>#sh_ylw-pushpin10</styleUrl>
		</Pair>
	</StyleMap>
	<StyleMap id="msn_ylw-pushpin14">
		<Pair>
			<key>normal</key>
			<styleUrl>#sn_ylw-pushpin53</styleUrl>
		</Pair>
		<Pair>
			<key>highlight</key>
			<styleUrl>#sh_ylw-pushpin31</styleUrl>
		</Pair>
	</StyleMap>
	<StyleMap id="msn_ylw-pushpin16">
		<Pair>
			<key>normal</key>
			<styleUrl>#sn_ylw-pushpin14</styleUrl>
		</Pair>
		<Pair>
			<key>highlight</key>
			<styleUrl>#sh_ylw-pushpin11</styleUrl>
		</Pair>
	</StyleMap>
	<StyleMap id="msn_ylw-pushpin2">
		<Pair>
			<key>normal</key>
			<styleUrl>#sn_ylw-pushpin3</styleUrl>
		</Pair>
		<Pair>
			<key>highlight</key>
			<styleUrl>#sh_ylw-pushpin8</styleUrl>
		</Pair>
	</StyleMap>
	<StyleMap id="msn_ylw-pushpin3">
		<Pair>
			<key>normal</key>
			<styleUrl>#sn_ylw-pushpin1</styleUrl>
		</Pair>
		<Pair>
			<key>highlight</key>
			<styleUrl>#sh_ylw-pushpin14</styleUrl>
		</Pair>
	</StyleMap>
	<StyleMap id="msn_ylw-pushpin311">
		<Pair>
			<key>normal</key>
			<styleUrl>#sn_ylw-pushpin260</styleUrl>
		</Pair>
		<Pair>
			<key>highlight</key>
			<styleUrl>#sh_ylw-pushpin160</styleUrl>
		</Pair>
	</StyleMap>
	<StyleMap id="msn_ylw-pushpin32">
		<Pair>
			<key>normal</key>
			<styleUrl>#sn_ylw-pushpin003</styleUrl>
		</Pair>
		<Pair>
			<key>highlight</key>
			<styleUrl>#sh_ylw-pushpin05</styleUrl>
		</Pair>
	</StyleMap>
	<StyleMap id="msn_ylw-pushpin411">
		<Pair>
			<key>normal</key>
			<styleUrl>#sn_ylw-pushpin231</styleUrl>
		</Pair>
		<Pair>
			<key>highlight</key>
			<styleUrl>#sh_ylw-pushpin201</styleUrl>
		</Pair>
	</StyleMap>
	<StyleMap id="msn_ylw-pushpin43">
		<Pair>
			<key>normal</key>
			<styleUrl>#sn_ylw-pushpin06</styleUrl>
		</Pair>
		<Pair>
			<key>highlight</key>
			<styleUrl>#sh_ylw-pushpin92</styleUrl>
		</Pair>
	</StyleMap>
	<StyleMap id="msn_ylw-pushpin6">
		<Pair>
			<key>normal</key>
			<styleUrl>#sn_ylw-pushpin18</styleUrl>
		</Pair>
		<Pair>
			<key>highlight</key>
			<styleUrl>#sh_ylw-pushpin1</styleUrl>
		</Pair>
	</StyleMap>
	<StyleMap id="msn_ylw-pushpin7">
		<Pair>
			<key>normal</key>
			<styleUrl>#sn_ylw-pushpin</styleUrl>
		</Pair>
		<Pair>
			<key>highlight</key>
			<styleUrl>#sh_ylw-pushpin13</styleUrl>
		</Pair>
	</StyleMap>
	<StyleMap id="msn_ylw-pushpin71">
		<Pair>
			<key>normal</key>
			<styleUrl>#sn_ylw-pushpin290</styleUrl>
		</Pair>
		<Pair>
			<key>highlight</key>
			<styleUrl>#sh_ylw-pushpin221</styleUrl>
		</Pair>
	</StyleMap>
	<Style id="s_ylw-pushpin0">
		<IconStyle>
			<color>ffdf00ff</color>
			<scale>0.7</scale>
			<Icon>
				<href>http://maps.google.com/mapfiles/kml/pushpin/ylw-pushpin.png</href>
			</Icon>
			<hotSpot x="20" y="2" xunits="pixels" yunits="pixels"/>
		</IconStyle>
		<LabelStyle>
			<color>ffff00e8</color>
			<scale>1.1</scale>
		</LabelStyle>
	</Style>
	<Style id="s_ylw-pushpin19">
		<IconStyle>
			<color>ff02baff</color>
			<scale>0.8</scale>
			<Icon>
				<href>http://maps.google.com/mapfiles/kml/pushpin/ylw-pushpin.png</href>
			</Icon>
			<hotSpot x="20" y="2" xunits="pixels" yunits="pixels"/>
		</IconStyle>
		<LabelStyle>
			<color>ff269bff</color>
			<scale>1.1</scale>
		</LabelStyle>
	</Style>
	<Style id="s_ylw-pushpin_hl1">
		<IconStyle>
			<color>ffdf00ff</color>
			<scale>0.827273</scale>
			<Icon>
				<href>http://maps.google.com/mapfiles/kml/pushpin/ylw-pushpin.png</href>
			</Icon>
			<hotSpot x="20" y="2" xunits="pixels" yunits="pixels"/>
		</IconStyle>
		<LabelStyle>
			<color>ffff00e8</color>
			<scale>1.1</scale>
		</LabelStyle>
	</Style>
	<Style id="s_ylw-pushpin_hl16">
		<IconStyle>
			<color>ff02baff</color>
			<scale>0.945455</scale>
			<Icon>
				<href>http://maps.google.com/mapfiles/kml/pushpin/ylw-pushpin.png</href>
			</Icon>
			<hotSpot x="20" y="2" xunits="pixels" yunits="pixels"/>
		</IconStyle>
		<LabelStyle>
			<color>ff269bff</color>
			<scale>1.1</scale>
		</LabelStyle>
	</Style>
	<Style id="sh_ylw-pushpin0">
		<IconStyle>
			<color>ff6200ff</color>
			<scale>0.827273</scale>
			<Icon>
				<href>http://maps.google.com/mapfiles/kml/pushpin/ylw-pushpin.png</href>
			</Icon>
			<hotSpot x="20" y="2" xunits="pixels" yunits="pixels"/>
		</IconStyle>
		<LabelStyle>
			<color>ff7046ff</color>
		</LabelStyle>
	</Style>
	<Style id="sh_ylw-pushpin05">
		<IconStyle>
			<color>ff00a3ff</color>
			<scale>0.827273</scale>
			<Icon>
				<href>http://maps.google.com/mapfiles/kml/pushpin/ylw-pushpin.png</href>
			</Icon>
			<hotSpot x="20" y="2" xunits="pixels" yunits="pixels"/>
		</IconStyle>
		<LabelStyle>
			<color>ff219bff</color>
		</LabelStyle>
	</Style>
	<Style id="sh_ylw-pushpin1">
		<IconStyle>
			<color>fffc9ea8</color>
			<scale>0.827273</scale>
			<Icon>
				<href>http://maps.google.com/mapfiles/kml/pushpin/ylw-pushpin.png</href>
			</Icon>
			<hotSpot x="20" y="2" xunits="pixels" yunits="pixels"/>
		</IconStyle>
		<LabelStyle>
			<color>fffb9aac</color>
		</LabelStyle>
	</Style>
	<Style id="sh_ylw-pushpin10">
		<IconStyle>
			<color>fff3c300</color>
			<scale>0.827273</scale>
			<Icon>
				<href>http://maps.google.com/mapfiles/kml/pushpin/ylw-pushpin.png</href>
			</Icon>
			<hotSpot x="20" y="2" xunits="pixels" yunits="pixels"/>
		</IconStyle>
		<LabelStyle>
			<color>ffefe451</color>
		</LabelStyle>
	</Style>
	<Style id="sh_ylw-pushpin11">
		<IconStyle>
			<color>ff6ffb0a</color>
			<scale>0.827273</scale>
			<Icon>
				<href>http://maps.google.com/mapfiles/kml/pushpin/ylw-pushpin.png</href>
			</Icon>
			<hotSpot x="20" y="2" xunits="pixels" yunits="pixels"/>
		</IconStyle>
		<LabelStyle>
			<color>ff00fe00</color>
		</LabelStyle>
	</Style>
	<Style id="sh_ylw-pushpin13">
		<IconStyle>
			<color>fff277f3</color>
			<scale>0.827273</scale>
			<Icon>
				<href>http://maps.google.com/mapfiles/kml/pushpin/ylw-pushpin.png</href>
			</Icon>
			<hotSpot x="20" y="2" xunits="pixels" yunits="pixels"/>
		</IconStyle>
		<LabelStyle>
			<color>ffe24cff</color>
		</LabelStyle>
	</Style>
	<Style id="sh_ylw-pushpin14">
		<IconStyle>
			<color>ffffa9af</color>
			<scale>0.827273</scale>
			<Icon>
				<href>http://maps.google.com/mapfiles/kml/pushpin/ylw-pushpin.png</href>
			</Icon>
			<hotSpot x="20" y="2" xunits="pixels" yunits="pixels"/>
		</IconStyle>
		<LabelStyle>
			<color>fffcb0ac</color>
		</LabelStyle>
	</Style>
	<Style id="sh_ylw-pushpin15">
		<IconStyle>
			<color>fffb8fab</color>
			<scale>0.827273</scale>
			<Icon>
				<href>http://maps.google.com/mapfiles/kml/pushpin/ylw-pushpin.png</href>
			</Icon>
			<hotSpot x="20" y="2" xunits="pixels" yunits="pixels"/>
		</IconStyle>
		<LabelStyle>
			<color>fffb52d5</color>
		</LabelStyle>
	</Style>
	<Style id="sh_ylw-pushpin160">
		<IconStyle>
			<color>ff00ff4c</color>
			<scale>0.827273</scale>
			<Icon>
				<href>http://maps.google.com/mapfiles/kml/pushpin/ylw-pushpin.png</href>
			</Icon>
			<hotSpot x="20" y="2" xunits="pixels" yunits="pixels"/>
		</IconStyle>
		<LabelStyle>
			<color>ff00ff3e</color>
		</LabelStyle>
	</Style>
	<Style id="sh_ylw-pushpin2">
		<IconStyle>
			<color>fffeb3fc</color>
			<scale>0.827273</scale>
			<Icon>
				<href>http://maps.google.com/mapfiles/kml/pushpin/ylw-pushpin.png</href>
			</Icon>
			<hotSpot x="20" y="2" xunits="pixels" yunits="pixels"/>
		</IconStyle>
		<LabelStyle>
			<color>fffbacf9</color>
		</LabelStyle>
	</Style>
	<Style id="sh_ylw-pushpin201">
		<IconStyle>
			<color>ff00f800</color>
			<scale>0.827273</scale>
			<Icon>
				<href>http://maps.google.com/mapfiles/kml/pushpin/ylw-pushpin.png</href>
			</Icon>
			<hotSpot x="20" y="2" xunits="pixels" yunits="pixels"/>
		</IconStyle>
		<LabelStyle>
			<color>ff00f700</color>
		</LabelStyle>
	</Style>
	<Style id="sh_ylw-pushpin211">
		<IconStyle>
			<color>ff0050ff</color>
			<scale>0.827273</scale>
			<Icon>
				<href>http://maps.google.com/mapfiles/kml/pushpin/ylw-pushpin.png</href>
			</Icon>
			<hotSpot x="20" y="2" xunits="pixels" yunits="pixels"/>
		</IconStyle>
		<LabelStyle>
			<color>ff0054ff</color>
		</LabelStyle>
	</Style>
	<Style id="sh_ylw-pushpin221">
		<IconStyle>
			<color>ffe7fe00</color>
			<scale>0.827273</scale>
			<Icon>
				<href>http://maps.google.com/mapfiles/kml/pushpin/ylw-pushpin.png</href>
			</Icon>
			<hotSpot x="20" y="2" xunits="pixels" yunits="pixels"/>
		</IconStyle>
		<LabelStyle>
			<color>fff8e900</color>
		</LabelStyle>
	</Style>
	<Style id="sh_ylw-pushpin31">
		<IconStyle>
			<color>ff00ff00</color>
			<scale>0.827273</scale>
			<Icon>
				<href>http://maps.google.com/mapfiles/kml/pushpin/ylw-pushpin.png</href>
			</Icon>
			<hotSpot x="20" y="2" xunits="pixels" yunits="pixels"/>
		</IconStyle>
		<LabelStyle>
			<color>ff6cff73</color>
		</LabelStyle>
	</Style>
	<Style id="sh_ylw-pushpin8">
		<IconStyle>
			<color>fff9bdbc</color>
			<scale>0.827273</scale>
			<Icon>
				<href>http://maps.google.com/mapfiles/kml/pushpin/ylw-pushpin.png</href>
			</Icon>
			<hotSpot x="20" y="2" xunits="pixels" yunits="pixels"/>
		</IconStyle>
		<LabelStyle>
			<color>fffbb7b0</color>
		</LabelStyle>
	</Style>
	<Style id="sh_ylw-pushpin92">
		<IconStyle>
			<color>ffddff00</color>
			<scale>0.827273</scale>
			<Icon>
				<href>http://maps.google.com/mapfiles/kml/pushpin/ylw-pushpin.png</href>
			</Icon>
			<hotSpot x="20" y="2" xunits="pixels" yunits="pixels"/>
		</IconStyle>
		<LabelStyle>
			<color>ffedfe00</color>
		</LabelStyle>
	</Style>
	<Style id="sn_ylw-pushpin">
		<IconStyle>
			<color>fff277f3</color>
			<scale>0.7</scale>
			<Icon>
				<href>http://maps.google.com/mapfiles/kml/pushpin/ylw-pushpin.png</href>
			</Icon>
			<hotSpot x="20" y="2" xunits="pixels" yunits="pixels"/>
		</IconStyle>
		<LabelStyle>
			<color>ffe24cff</color>
		</LabelStyle>
	</Style>
	<Style id="sn_ylw-pushpin003">
		<IconStyle>
			<color>ff00a3ff</color>
			<scale>0.7</scale>
			<Icon>
				<href>http://maps.google.com/mapfiles/kml/pushpin/ylw-pushpin.png</href>
			</Icon>
			<hotSpot x="20" y="2" xunits="pixels" yunits="pixels"/>
		</IconStyle>
		<LabelStyle>
			<color>ff219bff</color>
		</LabelStyle>
	</Style>
	<Style id="sn_ylw-pushpin06">
		<IconStyle>
			<color>ffddff00</color>
			<scale>0.7</scale>
			<Icon>
				<href>http://maps.google.com/mapfiles/kml/pushpin/ylw-pushpin.png</href>
			</Icon>
			<hotSpot x="20" y="2" xunits="pixels" yunits="pixels"/>
		</IconStyle>
		<LabelStyle>
			<color>ffedfe00</color>
		</LabelStyle>
	</Style>
	<Style id="sn_ylw-pushpin1">
		<IconStyle>
			<color>ffffa9af</color>
			<scale>0.7</scale>
			<Icon>
				<href>http://maps.google.com/mapfiles/kml/pushpin/ylw-pushpin.png</href>
			</Icon>
			<hotSpot x="20" y="2" xunits="pixels" yunits="pixels"/>
		</IconStyle>
		<LabelStyle>
			<color>fffcb0ac</color>
		</LabelStyle>
	</Style>
	<Style id="sn_ylw-pushpin121">
		<IconStyle>
			<color>ff0050ff</color>
			<scale>0.7</scale>
			<Icon>
				<href>http://maps.google.com/mapfiles/kml/pushpin/ylw-pushpin.png</href>
			</Icon>
			<hotSpot x="20" y="2" xunits="pixels" yunits="pixels"/>
		</IconStyle>
		<LabelStyle>
			<color>ff0054ff</color>
		</LabelStyle>
	</Style>
	<Style id="sn_ylw-pushpin14">
		<IconStyle>
			<color>ff6ffb0a</color>
			<scale>0.7</scale>
			<Icon>
				<href>http://maps.google.com/mapfiles/kml/pushpin/ylw-pushpin.png</href>
			</Icon>
			<hotSpot x="20" y="2" xunits="pixels" yunits="pixels"/>
		</IconStyle>
		<LabelStyle>
			<color>ff00fe00</color>
		</LabelStyle>
	</Style>
	<Style id="sn_ylw-pushpin16">
		<IconStyle>
			<color>fffeb3fc</color>
			<scale>0.7</scale>
			<Icon>
				<href>http://maps.google.com/mapfiles/kml/pushpin/ylw-pushpin.png</href>
			</Icon>
			<hotSpot x="20" y="2" xunits="pixels" yunits="pixels"/>
		</IconStyle>
		<LabelStyle>
			<color>fffbacf9</color>
		</LabelStyle>
	</Style>
	<Style id="sn_ylw-pushpin18">
		<IconStyle>
			<color>fffc9ea8</color>
			<scale>0.7</scale>
			<Icon>
				<href>http://maps.google.com/mapfiles/kml/pushpin/ylw-pushpin.png</href>
			</Icon>
			<hotSpot x="20" y="2" xunits="pixels" yunits="pixels"/>
		</IconStyle>
		<LabelStyle>
			<color>fffb9aac</color>
		</LabelStyle>
	</Style>
	<Style id="sn_ylw-pushpin231">
		<IconStyle>
			<color>ff00f800</color>
			<scale>0.7</scale>
			<Icon>
				<href>http://maps.google.com/mapfiles/kml/pushpin/ylw-pushpin.png</href>
			</Icon>
			<hotSpot x="20" y="2" xunits="pixels" yunits="pixels"/>
		</IconStyle>
		<LabelStyle>
			<color>ff00f700</color>
		</LabelStyle>
	</Style>
	<Style id="sn_ylw-pushpin260">
		<IconStyle>
			<color>ff00ff4c</color>
			<scale>0.7</scale>
			<Icon>
				<href>http://maps.google.com/mapfiles/kml/pushpin/ylw-pushpin.png</href>
			</Icon>
			<hotSpot x="20" y="2" xunits="pixels" yunits="pixels"/>
		</IconStyle>
		<LabelStyle>
			<color>ff00ff3e</color>
		</LabelStyle>
	</Style>
	<Style id="sn_ylw-pushpin290">
		<IconStyle>
			<color>ffe7fe00</color>
			<scale>0.7</scale>
			<Icon>
				<href>http://maps.google.com/mapfiles/kml/pushpin/ylw-pushpin.png</href>
			</Icon>
			<hotSpot x="20" y="2" xunits="pixels" yunits="pixels"/>
		</IconStyle>
		<LabelStyle>
			<color>fff8e900</color>
		</LabelStyle>
	</Style>
	<Style id="sn_ylw-pushpin3">
		<IconStyle>
			<color>fff9bdbc</color>
			<scale>0.7</scale>
			<Icon>
				<href>http://maps.google.com/mapfiles/kml/pushpin/ylw-pushpin.png</href>
			</Icon>
			<hotSpot x="20" y="2" xunits="pixels" yunits="pixels"/>
		</IconStyle>
		<LabelStyle>
			<color>fffbb7b0</color>
		</LabelStyle>
	</Style>
	<Style id="sn_ylw-pushpin4">
		<IconStyle>
			<color>ff6200ff</color>
			<scale>0.7</scale>
			<Icon>
				<href>http://maps.google.com/mapfiles/kml/pushpin/ylw-pushpin.png</href>
			</Icon>
			<hotSpot x="20" y="2" xunits="pixels" yunits="pixels"/>
		</IconStyle>
		<LabelStyle>
			<color>ff7046ff</color>
		</LabelStyle>
	</Style>
	<Style id="sn_ylw-pushpin44">
		<IconStyle>
			<color>fff3c300</color>
			<scale>0.7</scale>
			<Icon>
				<href>http://maps.google.com/mapfiles/kml/pushpin/ylw-pushpin.png</href>
			</Icon>
			<hotSpot x="20" y="2" xunits="pixels" yunits="pixels"/>
		</IconStyle>
		<LabelStyle>
			<color>ffefe451</color>
		</LabelStyle>
	</Style>
	<Style id="sn_ylw-pushpin5">
		<IconStyle>
			<color>fffb8fab</color>
			<scale>0.7</scale>
			<Icon>
				<href>http://maps.google.com/mapfiles/kml/pushpin/ylw-pushpin.png</href>
			</Icon>
			<hotSpot x="20" y="2" xunits="pixels" yunits="pixels"/>
		</IconStyle>
		<LabelStyle>
			<color>fffb52d5</color>
		</LabelStyle>
	</Style>
	<Style id="sn_ylw-pushpin53">
		<IconStyle>
			<color>ff00ff00</color>
			<scale>0.7</scale>
			<Icon>
				<href>http://maps.google.com/mapfiles/kml/pushpin/ylw-pushpin.png</href>
			</Icon>
			<hotSpot x="20" y="2" xunits="pixels" yunits="pixels"/>
		</IconStyle>
		<LabelStyle>
			<color>ff6cff73</color>
		</LabelStyle>
	</Style>
	<Folder id="results">
		<name>Hub Centers - 3-17-26</name>
		<Placemark>
			<name>Sanford</name>
			<LookAt>
				<longitude>-70.52461997040628</longitude>
				<latitude>43.29857884177987</latitude>
				<altitude>0</altitude>
				<heading>-1.304942602266308</heading>
				<tilt>0</tilt>
				<range>96268.70048024713</range>
				<gx:altitudeMode>relativeToSeaFloor</gx:altitudeMode>
			</LookAt>
			<styleUrl>#msn_ylw-pushpin0</styleUrl>
			<Point>
				<gx:drawOrder>1</gx:drawOrder>
				<coordinates>-70.78042110892113,43.43946177145422,0</coordinates>
			</Point>
		</Placemark>
		<Placemark>
			<name>Freeport</name>
			<LookAt>
				<longitude>-70.01017878335028</longitude>
				<latitude>43.82860080845638</latitude>
				<altitude>0</altitude>
				<heading>0.07344143947832782</heading>
				<tilt>0</tilt>
				<range>30402.91810380853</range>
				<gx:altitudeMode>relativeToSeaFloor</gx:altitudeMode>
			</LookAt>
			<styleUrl>#msn_ylw-pushpin411</styleUrl>
			<Point>
				<gx:drawOrder>1</gx:drawOrder>
				<coordinates>-70.1069750116374,43.85930136560603,0</coordinates>
			</Point>
		</Placemark>
		<Placemark>
			<name>Bridgton</name>
			<LookAt>
				<longitude>-70.68838389365398</longitude>
				<latitude>44.08986923054741</latitude>
				<altitude>0</altitude>
				<heading>-0.5074787929490905</heading>
				<tilt>0</tilt>
				<range>42330.77679393097</range>
				<gx:altitudeMode>relativeToSeaFloor</gx:altitudeMode>
			</LookAt>
			<styleUrl>#msn_ylw-pushpin122</styleUrl>
			<Point>
				<gx:drawOrder>1</gx:drawOrder>
				<coordinates>-70.71118866085497,44.05306849573923,0</coordinates>
			</Point>
		</Placemark>
		<Placemark>
			<name>Bethel</name>
			<LookAt>
				<longitude>-70.54802169654326</longitude>
				<latitude>44.34373100420209</latitude>
				<altitude>0</altitude>
				<heading>-1.413879094609509</heading>
				<tilt>0</tilt>
				<range>87605.73124992407</range>
				<gx:altitudeMode>relativeToSeaFloor</gx:altitudeMode>
			</LookAt>
			<styleUrl>#msn_ylw-pushpin32</styleUrl>
			<Point>
				<gx:drawOrder>1</gx:drawOrder>
				<coordinates>-70.80650670694996,44.40276925698536,0</coordinates>
			</Point>
		</Placemark>
		<Placemark>
			<name>Farmington</name>
			<LookAt>
				<longitude>-70.56929287404293</longitude>
				<latitude>44.52370842811093</latitude>
				<altitude>0</altitude>
				<heading>-0.02601945127045707</heading>
				<tilt>0</tilt>
				<range>155413.8495042881</range>
				<gx:altitudeMode>relativeToSeaFloor</gx:altitudeMode>
			</LookAt>
			<styleUrl>#msn_ylw-pushpin14</styleUrl>
			<Point>
				<gx:drawOrder>1</gx:drawOrder>
				<coordinates>-70.16113944990686,44.65496273037219,0</coordinates>
			</Point>
		</Placemark>
		<Placemark>
			<name>Monson</name>
			<LookAt>
				<longitude>-69.51726704498843</longitude>
				<latitude>45.30661495478415</latitude>
				<altitude>0</altitude>
				<heading>-0.4532594998203722</heading>
				<tilt>0</tilt>
				<range>87947.73972629631</range>
				<gx:altitudeMode>relativeToSeaFloor</gx:altitudeMode>
			</LookAt>
			<styleUrl>#msn_ylw-pushpin2</styleUrl>
			<Point>
				<gx:drawOrder>1</gx:drawOrder>
				<coordinates>-69.51726704498844,45.30661495478415,0</coordinates>
			</Point>
		</Placemark>
		<Placemark>
			<name>Hartland</name>
			<LookAt>
				<longitude>-69.47533119397202</longitude>
				<latitude>44.8888981278258</latitude>
				<altitude>0</altitude>
				<heading>0.1031500801121971</heading>
				<tilt>0.5881885653744917</tilt>
				<range>18614.29675918747</range>
				<gx:altitudeMode>relativeToSeaFloor</gx:altitudeMode>
			</LookAt>
			<styleUrl>#msn_ylw-pushpin43</styleUrl>
			<Point>
				<gx:drawOrder>1</gx:drawOrder>
				<coordinates>-69.45593230713024,44.88141811484869,0</coordinates>
			</Point>
		</Placemark>
		<Placemark>
			<name>Winthrop</name>
			<LookAt>
				<longitude>-69.98885543523296</longitude>
				<latitude>44.34657557100956</latitude>
				<altitude>0</altitude>
				<heading>-0.2938830099753355</heading>
				<tilt>0</tilt>
				<range>60168.43937437619</range>
				<gx:altitudeMode>relativeToSeaFloor</gx:altitudeMode>
			</LookAt>
			<styleUrl>#m_ylw-pushpin</styleUrl>
			<Point>
				<gx:drawOrder>1</gx:drawOrder>
				<coordinates>-69.99407657428328,44.3014912207327,0</coordinates>
			</Point>
		</Placemark>
		<Placemark>
			<name>Warren</name>
			<LookAt>
				<longitude>-69.25600806458208</longitude>
				<latitude>44.02613916631583</latitude>
				<altitude>0</altitude>
				<heading>3.019583285971303</heading>
				<tilt>0</tilt>
				<range>60273.19927701371</range>
				<gx:altitudeMode>relativeToSeaFloor</gx:altitudeMode>
			</LookAt>
			<styleUrl>#msn_ylw-pushpin3</styleUrl>
			<Point>
				<gx:drawOrder>1</gx:drawOrder>
				<coordinates>-69.39214102896509,44.09608913857153,0</coordinates>
			</Point>
		</Placemark>
		<Placemark>
			<name>Searsport</name>
			<LookAt>
				<longitude>-68.97109427125666</longitude>
				<latitude>44.4296399844973</latitude>
				<altitude>0</altitude>
				<heading>0.2469507764599751</heading>
				<tilt>1.073475854931958</tilt>
				<range>17414.4061953157</range>
				<gx:altitudeMode>relativeToSeaFloor</gx:altitudeMode>
			</LookAt>
			<styleUrl>#msn_ylw-pushpin12</styleUrl>
			<Point>
				<gx:drawOrder>1</gx:drawOrder>
				<coordinates>-68.93118729345781,44.45564122181646,0</coordinates>
			</Point>
		</Placemark>
		<Placemark>
			<name>Orono</name>
			<LookAt>
				<longitude>-68.75921450948091</longitude>
				<latitude>44.86036572746925</latitude>
				<altitude>0</altitude>
				<heading>1.316282128393268e-07</heading>
				<tilt>0</tilt>
				<range>24838.14898260385</range>
				<gx:altitudeMode>relativeToSeaFloor</gx:altitudeMode>
			</LookAt>
			<styleUrl>#msn_ylw-pushpin311</styleUrl>
			<Point>
				<gx:drawOrder>1</gx:drawOrder>
				<coordinates>-68.67282474170244,44.88732574783303,0</coordinates>
			</Point>
		</Placemark>
		<Placemark>
			<name>Lincoln</name>
			<LookAt>
				<longitude>-68.51030606693567</longitude>
				<latitude>45.37717371695202</latitude>
				<altitude>0</altitude>
				<heading>0.1699307415487918</heading>
				<tilt>1.062734828278414</tilt>
				<range>17548.57479404058</range>
				<gx:altitudeMode>relativeToSeaFloor</gx:altitudeMode>
			</LookAt>
			<styleUrl>#msn_ylw-pushpin111</styleUrl>
			<Point>
				<gx:drawOrder>1</gx:drawOrder>
				<coordinates>-68.50407001754236,45.36464801259222,0</coordinates>
			</Point>
		</Placemark>
		<Placemark>
			<name>Ellsworth</name>
			<LookAt>
				<longitude>-68.49044496358624</longitude>
				<latitude>44.43576975332721</latitude>
				<altitude>0</altitude>
				<heading>-0.2529070876241435</heading>
				<tilt>0</tilt>
				<range>56335.19748969504</range>
				<gx:altitudeMode>relativeToSeaFloor</gx:altitudeMode>
			</LookAt>
			<styleUrl>#msn_ylw-pushpin6</styleUrl>
			<Point>
				<gx:drawOrder>1</gx:drawOrder>
				<coordinates>-68.42247410385342,44.53981378562433,0</coordinates>
			</Point>
		</Placemark>
		<Placemark>
			<name>Machias</name>
			<LookAt>
				<longitude>-67.26872714362221</longitude>
				<latitude>44.64104230857775</latitude>
				<altitude>0</altitude>
				<heading>0.9885652230054609</heading>
				<tilt>0</tilt>
				<range>41952.63262725737</range>
				<gx:altitudeMode>relativeToSeaFloor</gx:altitudeMode>
			</LookAt>
			<styleUrl>#m_ylw-pushpin15</styleUrl>
			<Point>
				<gx:drawOrder>1</gx:drawOrder>
				<coordinates>-67.455488248666,44.71220585582684,0</coordinates>
			</Point>
		</Placemark>
		<Placemark>
			<name>Princeton</name>
			<LookAt>
				<longitude>-67.60470513640691</longitude>
				<latitude>45.27181707731646</latitude>
				<altitude>0</altitude>
				<heading>0.8182328025611254</heading>
				<tilt>0</tilt>
				<range>30579.81217927241</range>
				<gx:altitudeMode>relativeToSeaFloor</gx:altitudeMode>
			</LookAt>
			<styleUrl>#msn_ylw-pushpin71</styleUrl>
			<Point>
				<gx:drawOrder>1</gx:drawOrder>
				<coordinates>-67.5735917087368,45.22427303292852,0</coordinates>
			</Point>
		</Placemark>
		<Placemark>
			<name>Danforth</name>
			<LookAt>
				<longitude>-67.88920818492815</longitude>
				<latitude>45.76165828216768</latitude>
				<altitude>0</altitude>
				<heading>1.614966483530286</heading>
				<tilt>0</tilt>
				<range>71526.45062152002</range>
				<gx:altitudeMode>relativeToSeaFloor</gx:altitudeMode>
			</LookAt>
			<styleUrl>#msn_ylw-pushpin</styleUrl>
			<Point>
				<gx:drawOrder>1</gx:drawOrder>
				<coordinates>-67.91125945606029,45.65455584564545,0</coordinates>
			</Point>
		</Placemark>
		<Placemark>
			<name>Smyrna Mills</name>
			<LookAt>
				<longitude>-68.14829215318571</longitude>
				<latitude>46.12472475557286</latitude>
				<altitude>0</altitude>
				<heading>1.342495880473828</heading>
				<tilt>6.651434840415756</tilt>
				<range>9111.982240683968</range>
				<gx:altitudeMode>relativeToSeaFloor</gx:altitudeMode>
			</LookAt>
			<styleUrl>#msn_ylw-pushpin16</styleUrl>
			<Point>
				<gx:drawOrder>1</gx:drawOrder>
				<coordinates>-68.14829215318571,46.12472475557286,0</coordinates>
			</Point>
		</Placemark>
		<Placemark>
			<name>New Sweden</name>
			<LookAt>
				<longitude>-68.11725515871628</longitude>
				<latitude>46.94310139441121</latitude>
				<altitude>0</altitude>
				<heading>1.374947449009359</heading>
				<tilt>0</tilt>
				<range>3476.25676577241</range>
				<gx:altitudeMode>relativeToSeaFloor</gx:altitudeMode>
			</LookAt>
			<styleUrl>#msn_ylw-pushpin7</styleUrl>
			<Point>
				<gx:drawOrder>1</gx:drawOrder>
				<coordinates>-68.12067702976614,46.94233499150014,0</coordinates>
			</Point>
		</Placemark>
		<atom:link rel="app" href="https://www.google.com/earth/about/versions/#earth-pro" title="Google Earth Pro 7.3.7.1094"></atom:link>
	</Folder>
</Document>
</kml>
