<?xml version="1.0" encoding="UTF-8"?>
<kml xmlns="http://www.opengis.net/kml/2.2" xmlns:gx="http://www.google.com/kml/ext/2.2" xmlns:kml="http://www.opengis.net/kml/2.2" xmlns:atom="http://www.w3.org/2005/Atom">
<Document>
	<name>Hub-Areas.kmz</name>
	<Style id="inline">
		<LineStyle>
			<color>ffeec300</color>
			<width>3</width>
		</LineStyle>
	</Style>
	<Style id="inline0">
		<LineStyle>
			<color>ff007cf9</color>
			<width>3</width>
		</LineStyle>
	</Style>
	<Style id="inline1">
		<LineStyle>
			<color>ffefb900</color>
			<width>3</width>
		</LineStyle>
	</Style>
	<StyleMap id="inline2">
		<Pair>
			<key>normal</key>
			<styleUrl>#inline16</styleUrl>
		</Pair>
		<Pair>
			<key>highlight</key>
			<styleUrl>#inline0</styleUrl>
		</Pair>
	</StyleMap>
	<Style id="inline3">
		<LineStyle>
			<color>ff0000ff</color>
			<width>3</width>
		</LineStyle>
	</Style>
	<Style id="inline4">
		<LineStyle>
			<color>ff16f34f</color>
			<width>3</width>
		</LineStyle>
	</Style>
	<Style id="inline5">
		<LineStyle>
			<color>ffeec300</color>
			<width>3</width>
		</LineStyle>
	</Style>
	<StyleMap id="inline6">
		<Pair>
			<key>normal</key>
			<styleUrl>#inline50</styleUrl>
		</Pair>
		<Pair>
			<key>highlight</key>
			<styleUrl>#inline38</styleUrl>
		</Pair>
	</StyleMap>
	<StyleMap id="inline7">
		<Pair>
			<key>normal</key>
			<styleUrl>#inline44</styleUrl>
		</Pair>
		<Pair>
			<key>highlight</key>
			<styleUrl>#inline13</styleUrl>
		</Pair>
	</StyleMap>
	<StyleMap id="inline8">
		<Pair>
			<key>normal</key>
			<styleUrl>#inline1</styleUrl>
		</Pair>
		<Pair>
			<key>highlight</key>
			<styleUrl>#inline40</styleUrl>
		</Pair>
	</StyleMap>
	<Style id="inline9">
		<LineStyle>
			<color>ff16f34f</color>
			<width>3</width>
		</LineStyle>
	</Style>
	<Style id="inline10">
		<LineStyle>
			<color>fff19200</color>
			<width>3</width>
		</LineStyle>
	</Style>
	<Style id="inline11">
		<LineStyle>
			<color>fff25283</color>
			<width>3</width>
		</LineStyle>
	</Style>
	<Style id="inline12">
		<LineStyle>
			<color>fff19200</color>
			<width>3</width>
		</LineStyle>
	</Style>
	<Style id="inline13">
		<LineStyle>
			<color>ff00f600</color>
			<width>3</width>
		</LineStyle>
	</Style>
	<StyleMap id="inline14">
		<Pair>
			<key>normal</key>
			<styleUrl>#inline24</styleUrl>
		</Pair>
		<Pair>
			<key>highlight</key>
			<styleUrl>#inline45</styleUrl>
		</Pair>
	</StyleMap>
	<Style id="inline15">
		<LineStyle>
			<color>ff0091f7</color>
			<width>3</width>
		</LineStyle>
	</Style>
	<Style id="inline16">
		<LineStyle>
			<color>ff007cf9</color>
			<width>3</width>
		</LineStyle>
	</Style>
	<Style id="inline52">
		<LineStyle>
			<color>ff24ffa9</color>
			<width>3</width>
		</LineStyle>
	</Style>
	<Style id="inline17">
		<LineStyle>
			<color>ff24ffa9</color>
			<width>3</width>
		</LineStyle>
	</Style>
	<Style id="inline18">
		<LineStyle>
			<color>ff0000ff</color>
			<width>3</width>
		</LineStyle>
	</Style>
	<Style id="inline19">
		<LineStyle>
			<color>fff15adb</color>
			<width>3</width>
		</LineStyle>
	</Style>
	<Style id="inline20">
		<LineStyle>
			<color>ff0091f7</color>
			<width>3</width>
		</LineStyle>
	</Style>
	<StyleMap id="inline21">
		<Pair>
			<key>normal</key>
			<styleUrl>#inline32</styleUrl>
		</Pair>
		<Pair>
			<key>highlight</key>
			<styleUrl>#inline11</styleUrl>
		</Pair>
	</StyleMap>
	<Style id="inline22">
		<LineStyle>
			<color>ffeeb2a9</color>
			<width>3</width>
		</LineStyle>
	</Style>
	<StyleMap id="inline23">
		<Pair>
			<key>normal</key>
			<styleUrl>#inline33</styleUrl>
		</Pair>
		<Pair>
			<key>highlight</key>
			<styleUrl>#inline19</styleUrl>
		</Pair>
	</StyleMap>
	<Style id="inline24">
		<LineStyle>
			<color>fff400f7</color>
			<width>3</width>
		</LineStyle>
	</Style>
	<Style id="inline51">
		<LineStyle>
			<color>ff00f600</color>
			<width>3</width>
		</LineStyle>
	</Style>
	<StyleMap id="inline25">
		<Pair>
			<key>normal</key>
			<styleUrl>#inline</styleUrl>
		</Pair>
		<Pair>
			<key>highlight</key>
			<styleUrl>#inline5</styleUrl>
		</Pair>
	</StyleMap>
	<Style id="inline26">
		<LineStyle>
			<color>fff300f8</color>
			<width>3</width>
		</LineStyle>
	</Style>
	<Style id="inline27">
		<LineStyle>
			<color>fff4009f</color>
			<width>3</width>
		</LineStyle>
	</Style>
	<StyleMap id="inline28">
		<Pair>
			<key>normal</key>
			<styleUrl>#inline41</styleUrl>
		</Pair>
		<Pair>
			<key>highlight</key>
			<styleUrl>#inline35</styleUrl>
		</Pair>
	</StyleMap>
	<Style id="inline50">
		<LineStyle>
			<color>ffee9fb2</color>
			<width>3</width>
		</LineStyle>
	</Style>
	<StyleMap id="inline29">
		<Pair>
			<key>normal</key>
			<styleUrl>#inline20</styleUrl>
		</Pair>
		<Pair>
			<key>highlight</key>
			<styleUrl>#inline15</styleUrl>
		</Pair>
	</StyleMap>
	<StyleMap id="inline49">
		<Pair>
			<key>normal</key>
			<styleUrl>#inline48</styleUrl>
		</Pair>
		<Pair>
			<key>highlight</key>
			<styleUrl>#inline27</styleUrl>
		</Pair>
	</StyleMap>
	<StyleMap id="inline30">
		<Pair>
			<key>normal</key>
			<styleUrl>#inline3</styleUrl>
		</Pair>
		<Pair>
			<key>highlight</key>
			<styleUrl>#inline18</styleUrl>
		</Pair>
	</StyleMap>
	<Style id="inline31">
		<LineStyle>
			<color>ff00f600</color>
			<width>3</width>
		</LineStyle>
	</Style>
	<Style id="inline32">
		<LineStyle>
			<color>fff25283</color>
			<width>3</width>
		</LineStyle>
	</Style>
	<Style id="inline33">
		<LineStyle>
			<color>fff15adb</color>
			<width>3</width>
		</LineStyle>
	</Style>
	<StyleMap id="inline34">
		<Pair>
			<key>normal</key>
			<styleUrl>#inline26</styleUrl>
		</Pair>
		<Pair>
			<key>highlight</key>
			<styleUrl>#inline42</styleUrl>
		</Pair>
	</StyleMap>
	<Style id="inline35">
		<LineStyle>
			<color>ffefa68f</color>
			<width>3</width>
		</LineStyle>
	</Style>
	<Style id="inline36">
		<LineStyle>
			<color>ffeeb2a9</color>
			<width>3</width>
		</LineStyle>
	</Style>
	<StyleMap id="inline37">
		<Pair>
			<key>normal</key>
			<styleUrl>#inline10</styleUrl>
		</Pair>
		<Pair>
			<key>highlight</key>
			<styleUrl>#inline12</styleUrl>
		</Pair>
	</StyleMap>
	<Style id="inline48">
		<LineStyle>
			<color>fff4009f</color>
			<width>3</width>
		</LineStyle>
	</Style>
	<Style id="inline38">
		<LineStyle>
			<color>ffee9fb2</color>
			<width>3</width>
		</LineStyle>
	</Style>
	<StyleMap id="inline39">
		<Pair>
			<key>normal</key>
			<styleUrl>#inline52</styleUrl>
		</Pair>
		<Pair>
			<key>highlight</key>
			<styleUrl>#inline17</styleUrl>
		</Pair>
	</StyleMap>
	<Style id="inline40">
		<LineStyle>
			<color>ffefb900</color>
			<width>3</width>
		</LineStyle>
	</Style>
	<Style id="inline41">
		<LineStyle>
			<color>ffefa68f</color>
			<width>3</width>
		</LineStyle>
	</Style>
	<Style id="inline42">
		<LineStyle>
			<color>fff300f8</color>
			<width>3</width>
		</LineStyle>
	</Style>
	<StyleMap id="inline43">
		<Pair>
			<key>normal</key>
			<styleUrl>#inline22</styleUrl>
		</Pair>
		<Pair>
			<key>highlight</key>
			<styleUrl>#inline36</styleUrl>
		</Pair>
	</StyleMap>
	<Style id="inline44">
		<LineStyle>
			<color>ff00f600</color>
			<width>3</width>
		</LineStyle>
	</Style>
	<Style id="inline45">
		<LineStyle>
			<color>fff400f7</color>
			<width>3</width>
		</LineStyle>
	</Style>
	<StyleMap id="inline46">
		<Pair>
			<key>normal</key>
			<styleUrl>#inline31</styleUrl>
		</Pair>
		<Pair>
			<key>highlight</key>
			<styleUrl>#inline51</styleUrl>
		</Pair>
	</StyleMap>
	<StyleMap id="inline47">
		<Pair>
			<key>normal</key>
			<styleUrl>#inline9</styleUrl>
		</Pair>
		<Pair>
			<key>highlight</key>
			<styleUrl>#inline4</styleUrl>
		</Pair>
	</StyleMap>
	<Style id="inline113">
		<LineStyle>
			<color>ff219ef6</color>
			<width>3</width>
		</LineStyle>
	</Style>
	<Style id="inline56">
		<LineStyle>
			<color>ff219ef6</color>
			<width>3</width>
		</LineStyle>
	</Style>
	<StyleMap id="inline91">
		<Pair>
			<key>normal</key>
			<styleUrl>#inline56</styleUrl>
		</Pair>
		<Pair>
			<key>highlight</key>
			<styleUrl>#inline113</styleUrl>
		</Pair>
	</StyleMap>
	<StyleMap id="msn_ylw-pushpin">
		<Pair>
			<key>normal</key>
			<styleUrl>#sn_ylw-pushpin</styleUrl>
		</Pair>
		<Pair>
			<key>highlight</key>
			<styleUrl>#sh_ylw-pushpin</styleUrl>
		</Pair>
	</StyleMap>
	<Style id="sh_ylw-pushpin">
		<IconStyle>
			<scale>1.3</scale>
			<Icon>
				<href>http://maps.google.com/mapfiles/kml/pushpin/ylw-pushpin.png</href>
			</Icon>
			<hotSpot x="20" y="2" xunits="pixels" yunits="pixels"/>
		</IconStyle>
		<BalloonStyle>
		</BalloonStyle>
		<LineStyle>
			<color>ff3538ff</color>
			<width>1.9</width>
		</LineStyle>
	</Style>
	<Style id="sn_ylw-pushpin">
		<IconStyle>
			<scale>1.1</scale>
			<Icon>
				<href>http://maps.google.com/mapfiles/kml/pushpin/ylw-pushpin.png</href>
			</Icon>
			<hotSpot x="20" y="2" xunits="pixels" yunits="pixels"/>
		</IconStyle>
		<BalloonStyle>
		</BalloonStyle>
		<LineStyle>
			<color>ff3538ff</color>
			<width>1.9</width>
		</LineStyle>
	</Style>
	<Folder>
		<name>Hub Areas_3-17-26</name>
		<open>1</open>
		<Placemark>
			<name>Sanford</name>
			<styleUrl>#inline49</styleUrl>
			<LineString>
				<tessellate>1</tessellate>
				<coordinates>
					-70.58945760512638,43.68008684583707,84.95875874915754 -70.55589703577843,43.67330116663941,75.30146000835052 -70.52329104015998,43.66441641046155,66.19541127319965 -70.49189063995102,43.65350111143739,61.62847534612522 -70.46193719366505,43.64063942460319,50.66720640921029 -70.43366048696811,43.62593045189038,41.5461912427219 -70.40727692872153,43.60948745029171,35.4070494256461 -70.38298786814389,43.59143692941705,26.30185156913494 -70.36097804693716,43.5719176465816,12.58679909477782 -70.34141419853761,43.55107950839292,1.048717490767857 -70.32444380487063,43.52908238851499,-0.5004127030842991 -70.31019401914538,43.50609487188417,1.08272376931993 -70.29877076135486,43.4822929361294,-15.36478887084396 -70.29025799128391,43.45785858130868,-29.80983486041728 -70.28471716200258,43.43297841931556,-42.42779983810878 -70.28218685506174,43.40784223443863,-51.73128370150175 -70.28268259693738,43.38264152657697,-56.96170440232366 -70.28619685470672,43.35756804853406,-60.13909241769296 -70.29269920750093,43.33281234863625,-54.17322757623308 -70.30213668897328,43.30856232966145,-61.10534364944209 -70.31443429485702,43.28500183472417,-69.23328570364741 -70.32949564866375,43.2623092703565,-79.45674540626536 -70.34720381769085,43.24065627655797,-75.29983892737567 -70.36742227075931,43.22020645306953,-73.55787545941513 -70.3899959684837,43.2011141505667,-70.42062798252951 -70.41475257637518,43.18352333487125,-64.41580435738831 -70.44150379068213,43.16756653165668,-55.78209435995618 -70.47004676657221,43.15336385847598,-45.78613836071114 -70.50016563803707,43.14102215027722,-35.12953583068595 -70.53163311874648,43.13063418389532,-30.75501013324659 -70.56421217297688,43.12227800632384,-26.93074145183653 -70.59765774567921,43.11601637087883,-15.9121123655521 -70.63171854072023,43.11189628467193,-2.465722400276653 -70.66613883632053,43.10994867011189,6.149098597656891 -70.70066032671335,43.11018814245607,4.764096131606503 -70.73502397905276,43.11261290473328,-0.09940287651051315 -70.76897189460468,43.11720476066107,2.043263204247959 -70.80224916325599,43.12392924548091,8.669079818192104 -70.83460570037398,43.13273587393532,28.34153512359633 -70.86579805504421,43.1435585039124,31.20938804870014 -70.89559117870935,43.1563158135836,33.68285077146205 -70.92376014323411,43.17091188916245,32.83484915680651 -70.95009179743461,43.18723691971511,40.63135882788892 -70.97438635114769,43.20516799475862,49.25222785994851 -70.99645887598317,43.22456999969309,57.37058463502851 -71.01614071201477,43.24529660342976,66.90979619051902 -71.03328076983357,43.26719133190377,113.1411815795958 -71.04774671762588,43.29008872049957,153.9930645494038 -71.05942604325902,43.31381553777525,189.1542666903362 -71.06822698177523,43.33819207225339,220.5827367527999 -71.0740792992213,43.36303347345759,243.9577972730164 -71.07693492438705,43.3881511378219,215.5754169057424 -71.07676842080251,43.41335412959418,186.1897772572601 -71.07357729225676,43.43845062639859,186.8294853444381 -71.06738211615476,43.46324937873138,218.9796041628824 -71.05822650022554,43.48756117233999,239.4852495816063 -71.04617685942971,43.51120028219319,207.0574972113156 -71.03132201138145,43.53398590659399,177.0458128739605 -71.01377259018835,43.55574356992762,196.9227077019623 -70.99366028030421,43.57630648258053,236.8301307775596 -70.97113687376695,43.59551684671967,205.7293068557415 -70.94637315602951,43.61322709688851,194.3334837988604 -70.9195576274591,43.6293010647621,188.3176700727942 -70.89089506944775,43.64361505790632,197.3542675471318 -70.86060496590896,43.65605884300943,167.0737581655331 -70.82891979269995,43.66653652479038,140.2879157540481 -70.79608318916577,43.67496731263511,122.1498227030081 -70.7623480275191,43.68128616796061,105.7150303115225 -70.72797439711299,43.68544432634701,100.318744801987 -70.69322752180139,43.68740968959857,97.95586441311248 -70.65837562949099,43.68716708408074,95.18683182269935 -70.62368779364191,43.68471838291762,89.65383821307942 -70.58945760512638,43.68008684583707,84.95875874915754 
				</coordinates>
			</LineString>
		</Placemark>
		<Placemark>
			<name>Freeport</name>
			<styleUrl>#inline47</styleUrl>
			<LineString>
				<tessellate>1</tessellate>
				<coordinates>
					-70.30825703038872,44.10308273915671,153.105642691329 -70.29381993300272,44.13720220606928,139.8959120722315 -70.24346484513293,44.13563273182403,125.0743860673679 -70.20490662798929,44.13383838715494,108.8771782570739 -70.16838937688686,44.13963242909077,92.01203352159179 -70.13130237519559,44.14310839786413,77.11043607309954 -70.09393216937418,44.1442394284779,80.89999365250824 -70.05656759596181,44.14301677841058,88.55959594423221 -70.01949744594188,44.139449898352,96.39946327111974 -69.98300812953822,44.13356635573844,104.3599678360376 -69.94738136359211,44.12541161181564,105.2397433767894 -69.91289190334601,44.11504865434789,93.30864515301479 -69.87980533983064,44.10255748945291,78.59858171631365 -69.84837598312929,44.08803449735161,63.61755915376288 -69.8188448506023,44.07159165806518,52.2569879788845 -69.79143777772252,44.05335565425004,47.89848849115334 -69.76636366753348,44.03346685942168,47.09787409175591 -69.743812892935,44.01207822076852,46.9783736764765 -69.72395586406414,43.98935404658798,44.69203212297163 -69.70694177101619,43.96546870908167,39.64852721525839 -69.69289751008041,43.94060527382182,32.87749348540357 -69.68192679958869,43.91495406764539,19.66596389610138 -69.67410948943025,43.88871119704582,6.03108052865973 -69.66950106630294,43.86207702931976,-0.5005142751684839 -69.66813235488343,43.83525464879283,-0.5004368866441086 -69.67000941332802,43.80844830039891,-0.5005885508172173 -69.67511361988065,43.78186183273421,-0.5003346786722245 -69.68340194588201,43.7556971524549,-9.478527286885893 -69.6948074091483,43.73015270154947,-21.45846034267721 -69.70923970052802,43.70542196860087,-33.24925287859958 -69.72658597544516,43.68169204467185,-44.76118191494989 -69.74671180139642,43.6591422339073,-55.90664321726604 -69.76946225167731,43.6379427283611,-66.6008247268927 -69.7946631350584,43.61825335592948,-70.6300798028192 -69.82212235070287,43.60022240961658,-78.7282895985076 -69.8516313572982,43.58398556567807,-82.05353748331487 -69.88296674514913,43.5696648974912,-82.38483604889906 -69.91589189983355,43.55736799128957,-81.96069069537498 -69.95015874593818,43.54718716918268,-85.78621062462419 -69.98550955935545,43.53919882415762,-84.30466499934062 -70.02167883661953,43.5334628710342,-79.23570403414131 -70.05839520977788,43.53002231661915,-71.69550532219699 -70.09538339532239,43.52890295157916,-63.01233059004078 -70.13236616573298,43.53011316582717,-53.25224637872816 -70.16906633221008,43.53364388849305,-34.74610563648562 -70.20520872718458,43.53946865282575,-15.04230688325475 -70.24052217519326,43.5475437856515,-6.334280267652032 -70.27474144069576,43.55780872028904,-0.4739729549438021 -70.30760914138443,43.57018643109861,0.6924629112317482 -70.33887761551055,43.58458398711735,7.162235609683063 -70.36831073172182,43.60089322150657,19.04143020952808 -70.39568562988902,43.61899151281147,31.17526025894825 -70.49946932991671,43.65967872704437,43.07022076100301 -70.467671045885,43.71676469023727,54.63576458729263 -70.30825703038872,44.10308273915671,153.105642691329 
				</coordinates>
			</LineString>
		</Placemark>
		<Placemark>
			<name>Bridgton</name>
			<styleUrl>#inline37</styleUrl>
			<LineString>
				<tessellate>1</tessellate>
				<coordinates>
					-70.63304149660966,44.24199331224131,174.9216218935387 -70.59774149119004,44.24285042602172,167.5434352961499 -70.56247250294449,44.24148934612308,141.1178531629948 -70.52750690624572,44.23792058481682,178.4372950909005 -70.4931146300533,44.23217170185113,187.9264819247413 -70.45956098551984,44.22428708230173,194.893844967756 -70.42710453681778,44.21432757913961,165.0820059847501 -70.39599503486437,44.20237002386398,144.6625002604779 -70.36647143275883,44.18850660976219,139.4154834444487 -70.33876000063829,44.17284415350898,138.5622200176987 -70.31307255633412,44.15550324188992,153.9419302801952 -70.28960482669815,44.13661727141628,150.0508629435098 -70.4656743982527,43.72588313077989,150.0508629435098 -70.47285460225226,43.70542099320406,74.13696165021614 -70.48836287195206,43.67424638077458,73.40016435542434 -70.50184413151514,43.67188696796841,65.3435721215978 -70.53607726600235,43.66668196506357,69.29606805397526 -70.57080316670707,43.66364450917267,74.17523444773612 -70.60576126742312,43.66279738820311,95.5644951294025 -70.64068933565297,43.66414695690319,100.7217710461583 -70.67532535437866,43.66768309124264,113.0153819772087 -70.70940940257265,43.67337926109477,110.099397035322 -70.74268552343476,43.68119272079258,102.1422806245219 -70.77490356933436,43.69106481643546,123.1531957755414 -70.80582101242659,43.70292140812627,150.2200709013539 -70.83520470990085,43.71667340462291,179.6106110530892 -70.86283261281723,43.73221740719261,208.4604979957619 -70.88849540749872,43.74943645876189,152.9617179980481 -70.91199807848534,43.76820089376434,149.2111063733926 -70.93316138213042,43.78836928339939,166.4442460787556 -70.95182322004486,43.80978947033611,176.7044239864215 -70.96783990178137,43.83229968622559,202.5774542776034 -70.98108728641706,43.85572974473082,306.1785359411004 -70.99146179304721,43.87990230214784,421.9511183565252 -70.99888127066504,43.9046341770824,310.4840535872044 -71.00328571848009,43.92973772007007,288.0387711497963 -71.00463784843443,43.95502222349007,306.0534637659169 -71.00292348252087,43.98029536163487,151.9568500753295 -70.99815177849477,44.00536465036514,136.9337801297785 -70.99035527870618,44.03003891541302,143.5363640116363 -70.97958977806046,44.0541297581054,139.0297699510081 -70.96593400853698,44.07745300707041,132.3549839779768 -70.94948913925059,44.09983014437563,125.4194647931268 -70.93037809271244,44.12108969453099,119.1439061323602 -70.90874467971895,44.14106856488274,129.8331202621839 -70.88475255714509,44.15961332613028,141.7444199581557 -70.85858401481701,44.17658142202178,158.5809012341746 -70.83043859955256,44.19184229772809,252.4210835965837 -70.80053158635945,44.20527843695881,344.2202643948569 -70.76909230862819,44.21678629856665,393.799391010721 -70.7363623609163,44.22627714418449,356.9434259543056 -70.70259368955404,44.23367774934355,239.2333464239282 -70.66804658777436,44.23893099152566,223.8740627947447 -70.63304149660966,44.24199331224131,174.9216218935387 
				</coordinates>
			</LineString>
		</Placemark>
		<Placemark>
			<name>Bethel</name>
			<styleUrl>#inline29</styleUrl>
			<LineString>
				<tessellate>1</tessellate>
				<coordinates>
					-70.40932230569113,44.3939476901776,189.3689160768192 -70.41666629631368,44.37236625927626,199.7948457878821 -70.42660759240583,44.35132367099636,208.5992482598145 -70.43906809618203,44.33097941988586,218.1761850795263 -70.4539508993268,44.31148754522658,229.7916101066205 -70.4711410818191,44.29299548328667,240.6675331932704 -70.49050663484776,44.27564297321088,242.7036459408913 -70.51189949944123,44.25956102402179,235.3556360953106 -70.5351567119877,44.24487094967083,229.3993525215019 -70.56010164746205,44.23168347852003,227.0222459071452 -70.58654535089377,44.22009794305573,228.8898306463989 -70.61428794739439,44.210201555041,233.2463700336646 -70.64312012090353,44.20206877070602,240.0587069582228 -70.67282465169873,44.19576074995953,249.8770026202896 -70.70317800263601,44.19132491298087,263.5125680289813 -70.73395194403749,44.1887945969253,279.4231590934024 -70.76491520711107,44.18818881484322,297.4877314516098 -70.79583515576961,44.18951211828233,321.3434779500173 -70.8264794667073,44.19275456440601,348.5625429935239 -70.85661780758849,44.19789178782803,396.8070847784389 -70.88602350320377,44.20488517672739,461.1299806065907 -70.91447517945463,44.21368215217348,373.5597331679516 -70.9417583750388,44.22421654895722,398.5309507854635 -70.96766711073168,44.23640909559202,459.9205434416 -70.99200540619553,44.25016799051839,523.8472916310104 -71.01458873430973,44.26538957091955,589.8249821758905 -71.03524540310457,44.28195906993513,645.3593712092269 -71.05381785551097,44.29975145744618,749.6409147646281 -71.07016387731807,44.3186323590019,773.8809686090842 -71.08415770396957,44.3384590468692,793.1359454667748 -71.09569101713922,44.35908149661381,807.2593708452106 -71.10467382241741,44.38034350207174,816.1434396521554 -71.11103519992295,44.40208384104793,735.3150424892203 -71.11472392023749,44.42413748358804,645.5036882650454 -71.11570891875044,44.44633683422047,559.1264676672803 -71.11397962230828,44.46851299916043,476.8404031695803 -71.10954612298366,44.49049706911788,471.0964497950139 -71.10243919482127,44.51212140806,486.0536924759783 -71.09271015057379,44.53322093805684,504.7523816160561 -71.08043053670869,44.55363441019012,517.0504650993539 -71.06569166633538,44.57320565143945,521.3537047606243 -71.04860399115918,44.59178477748059,528.0478915030807 -71.02929631509835,44.60922936144436,537.0820143432516 -71.00791485378215,44.62540554889537,526.1175838675829 -70.98462214576006,44.64018910959911,501.0101937586207 -70.95959582286754,44.65346641705737,492.0036131521136 -70.93302724878704,44.6651353473021,479.5060984855447 -70.90512003638165,44.67510608904848,464.7728184462116 -70.87608845583814,44.68330185800993,447.9158804023174 -70.84615574700193,44.68965950897097,429.0635993594564 -70.81555235049404,44.69413004008548,408.5766724578891 -70.78451407324249,44.69667898481103,386.4558486756054 -70.75328020491393,44.69728668789399,362.8131009068469 -70.72209160237777,44.69594846287008,337.8284013342911 -70.6911887597592,44.69267462962991,345.8006720862007 -70.66080988182915,44.68749043170343,358.4959246124165 -70.63118897843516,44.68043583402529,279.3918454848539 -70.60255399739683,44.67156520304247,278.920382909038 -70.57512501278063,44.66094687209817,277.4363135722283 -70.54911248474308,44.64866259606138,274.950911685442 -70.52471560620351,44.6348069001524,280.9014526594063 -70.50212075050162,44.61948632883393,276.8620385799886 -70.48150003293118,44.60281860147908,268.6831114069378 -70.46300999765036,44.58493168228826,279.502169455728 -70.4467904399757,44.56596277259465,287.4647547018474 -70.43296337250516,44.54605723427166,292.5102522479324 -70.42163214190948,44.52536745342848,273.4086450722256 -70.41288070161485,44.5040516539535,227.3015232527706 -70.40677304399593,44.4822726707368,181.5070488511415 -70.40335279413353,44.46019669257731,165.0750302924393 -70.4026429656867,44.43799198485798,171.9579112359518 -70.40464587800351,44.41582760206033,180.0879226755006 -70.40932230569113,44.3939476901776,189.3689160768192 
				</coordinates>
			</LineString>
		</Placemark>
		<Placemark>
			<name>Farmington</name>
			<styleUrl>#inline46</styleUrl>
			<LineString>
				<tessellate>1</tessellate>
				<coordinates>
					-70.72469914147115,44.91654620844619,550.7853310979935 -70.71780644184726,44.94129215854108,534.7532331405124 -70.70788574540413,44.96551787819247,532.2292738900875 -70.69500909463234,44.98903820596867,518.5199006123311 -70.67927145642395,45.011673146914,645.139342187315 -70.66079009400019,45.03324927177768,533.1239033086378 -70.63970375355777,45.05360107171634,622.0645546437319 -70.61617166924479,45.07257225711695,538.0184230777743 -70.59037239200607,45.09001698946504,513.3055413088917 -70.56250244979893,45.10580103558146,472.5754138104174 -70.53277484864024,45.11980283407209,416.5593747563157 -70.50141742586538,45.13191446447554,416.2717739395303 -70.46867106882365,45.14204251035293,442.3079967688129 -70.43478781396253,45.15010880843428,436.403236652977 -70.40002884282787,45.15605107690975,406.6609924318023 -70.36466239289314,45.15982341702138,634.7831584164892 -70.32896160229562,45.16139668325743,673.8900035365602 -70.29320230847382,45.16075871866443,624.5714754262914 -70.25766082134554,45.1579144530541,558.6084970185672 -70.22261169202454,45.15288586317512,591.854053952867 -70.1883254981371,45.14571179522714,613.8201182816534 -70.15506666656513,45.13644765139554,589.8133127642086 -70.12309135391719,45.12516494336283,549.5466213412756 -70.09264540422514,45.11195071698796,494.1877010008042 -70.06396240230119,45.0969068535225,445.0620931630032 -70.0372618398935,45.08014925383316,410.3403014843762 -70.01274741028078,45.06180691311742,392.5607552775626 -69.9906054452771,45.04202089451208,381.6808824913072 -69.97100350682031,45.02094321080291,377.1671369203762 -69.95408914342372,44.99873562413453,232.3956929547953 -69.93998881982401,44.97556837419124,155.4546528130423 -69.92880702619317,44.95161884577066,152.5374472429378 -69.92062557133583,44.92707018699968,148.9613952197504 -69.91550306239624,44.90210988965367,148.1161894135341 -69.91347457178225,44.8769283431342,151.487976684105 -69.91455149029848,44.85171737364864,143.0778286758584 -69.91872156388864,44.82666878001966,134.9453607270667 -69.92594910993233,44.80197287734548,145.2098295454463 -69.93617540773261,44.77781705943954,160.7784859663996 -69.94931925667484,44.75438439061116,174.8358097279878 -69.96527769453311,44.73185223691586,86.83335939176754 -69.9839268675462,44.71039094651465,91.74074182647539 -70.0051230431734,44.69016258824432,95.08949550969214 -70.02870375586222,44.67131975692446,102.6390566532802 -70.05448907570383,44.65400445331812,112.1718940463963 -70.08228298950334,44.6383470460304,116.7288058638538 -70.11187488353865,44.62446532197601,133.0558951968788 -70.14304111710653,44.61246363138167,142.7252481648105 -70.17554667584457,44.60243213261283,127.4259723301855 -70.20914689375732,44.59444614143252,171.2654546977594 -70.24358923285209,44.58856558861459,199.2165628662847 -70.27861510929066,44.58483458914637,298.0308136412178 -70.31396175497888,44.58328112556821,229.4942011965097 -70.34936410353605,44.58391684731014,315.9972210765938 -70.38455668960444,44.58673698719853,308.5249112727532 -70.41927555047104,44.59172039561994,189.0277275689658 -70.45326011897549,44.59882969214314,157.7330425356335 -70.48625509667038,44.60801153371353,149.466828707999 -70.51801229618452,44.61919699784845,305.1892269894216 -70.548292441719,44.63230207857415,548.3792025463779 -70.57686691658766,44.64722829215752,412.0819922606067 -70.60351944670592,44.663863388999,301.3452272813168 -70.62804770894236,44.68208216736548,372.0687901456982 -70.65026485329157,44.7017473839594,353.6240854605605 -70.67000092791353,44.72271075564087,386.1948765059699 -70.68710419623088,44.74481404594925,471.0543494024889 -70.70144233549478,44.76789022941207,569.0187633497954 -70.71290350653605,44.79176472598665,643.9194976381237 -70.72139728482851,44.81625669736135,574.0992883505959 -70.72685544351654,44.84118039625079,535.3492149538757 -70.72923257971333,44.86634655926669,552.7376925028748 -70.72850657617019,44.8915638334339,606.9629002517368 -70.72469914147115,44.91654620844619,550.7853310979935 
				</coordinates>
			</LineString>
		</Placemark>
		<Placemark>
			<name>Monson</name>
			<styleUrl>#inline28</styleUrl>
			<LineString>
				<tessellate>1</tessellate>
				<coordinates>
					-69.70872646558365,45.54660524134359,335.4688416557839 -69.68468328382656,45.5653684001696,339.1179942695503 -69.65837994835381,45.58258705383249,343.4876959232137 -69.63001692060807,45.59812867268049,329.1422760081496 -69.59981107182789,45.61187352945153,324.5295789283843 -69.56799400326013,45.6237156549191,345.9495076722047 -69.53481023218527,45.63356368637117,371.2391699045065 -69.50051525908512,45.64134160113885,389.0220440317191 -69.46537353286192,45.64698932837948,421.8302327795642 -69.4296563324002,45.65046323340089,456.2020882273675 -69.39363958391654,45.65173646997373,447.4031917455736 -69.35760163443922,45.65079919730292,456.6541247398735 -69.32182100237898,45.6476586596016,451.8721618081588 -69.28657412647622,45.64233912751124,437.0840279361256 -69.25213313443386,45.63488170192512,438.6600982388881 -69.21876365226512,45.62534398207501,491.6745443451582 -69.18672267481095,45.61379960101936,544.7986979185562 -69.15625651702591,45.60033763290363,523.8441036583058 -69.12759886451464,45.58506187753457,444.9460318989021 -69.10096894045175,45.56809002890429,365.5156330287044 -69.07656980446625,45.54955273530408,344.5633197231239 -69.05458679735422,45.52959255957001,345.7024700085502 -69.0351861436386,45.50836284879406,290.4415315742161 -69.01851372206016,45.48602652350912,233.2901050158834 -69.00469401210127,45.46275479690981,182.5052286217528 -68.99382922264924,45.43872583510233,140.4228880733205 -68.98599860693588,45.41412336968561,162.008160258839 -68.98125796597711,45.38913527415626,183.0539738544313 -68.97963934090876,45.36395211570617,200.9234199947573 -68.98115089289615,45.33876569394881,182.3348258649111 -68.98577696770538,45.31376757797854,156.4669910099112 -68.99347834057657,45.28914765294154,133.79123549309 -69.00419263574396,45.26509268699038,111.0544542472994 -69.01783491380658,45.24178492911199,110.4930574396898 -69.03429841917016,45.21940074787439,116.5136736417508 -69.05345547894791,45.19810932063661,122.6663666434884 -69.07515854401954,45.17807138222107,126.8588579149592 -69.09924136239461,45.15943804146323,133.3479359812697 -69.125520274594,45.14234967344012,140.0342079725713 -69.15379562043887,45.12693489454217,145.1853596605594 -69.18385324640626,45.11330962689829,154.5398159356656 -69.21546610255598,45.10157625799738,155.6403585656759 -69.24839591794294,45.09182290067426,150.9391826056208 -69.28239494338638,45.08412275794766,150.0025863026378 -69.31720775045748,45.07853359651534,150.2325430044171 -69.35257307556066,45.07509733202746,150.0047940707405 -69.38822569800767,45.07383972857564,167.8451380995568 -69.42389834100985,45.0747702141528,190.5508405861296 -69.45932358453597,45.07788181315617,206.3991884359802 -69.49423577899569,45.08315119632545,232.8495059378448 -69.52837294870942,45.09053884782615,261.9072993336636 -69.56147867411438,45.09998934850721,297.989422890868 -69.59330394163651,45.11143177368076,329.4540227526555 -69.62360895013065,45.12478020308767,386.075529787155 -69.65216486276773,45.13993434003103,417.3967419776943 -69.67875549323159,45.1567802359741,423.4686544742827 -69.70317891509309,45.17519111621751,420.8620488216777 -69.72524898326677,45.19502830158894,423.8903947603209 -69.74479675653789,45.21614222040292,425.1053056678712 -69.76167181029078,45.23837350427954,424.1991525748857 -69.77574342878803,45.26155416075505,528.4543460755934 -69.78690166665984,45.28550881497613,456.8228369177468 -69.7950582696766,45.31005601215366,391.0450702628875 -69.80014744541367,45.33500957186127,445.9620937110992 -69.80212647508417,45.36017998471375,397.6246839832945 -69.80097615862556,45.38537584145109,383.5104141527763 -69.79670108608789,45.41040528400131,374.3122212438145 -69.78932972948695,45.43507746770285,370.0999276731179 -69.7789143505597,45.45920402354825,363.0401209900078 -69.76553072128364,45.48260050907373,352.4002006027233 -69.74927765559143,45.50508783637139,343.3370170389761 -69.73027635241257,45.52649366565372,335.9196007279672 -69.70872646558365,45.54660524134359,335.4688416557839 
				</coordinates>
			</LineString>
		</Placemark>
		<Placemark>
			<name>Hartland</name>
			<styleUrl>#inline8</styleUrl>
			<LineString>
				<tessellate>1</tessellate>
				<coordinates>
					-69.77782355184429,45.08973524636734,415.1980041912953 -69.74531861414519,45.10053570986919,356.1013382666181 -69.71159306749583,45.10928542592249,315.5509172658941 -69.67690676227285,45.11591684606972,361.4971963321589 -69.64152728763251,45.12037875435033,386.7139086920125 -69.60572782375986,45.12263668028233,332.8299851952976 -69.56978494154653,45.12267317714036,312.9160972760679 -69.53397637028527,45.12048796290127,276.2321686852924 -69.49857875442041,45.11609792252317,220.6300275383084 -69.46386542054775,45.10953697153585,199.8916875402933 -69.43010417571284,45.10085578223448,190.0635366258265 -69.39755515761541,45.0901213750634,179.12791078802 -69.36646875660161,45.07741657903437,155.8518920953508 -69.33708362833229,45.06283936622804,152.9226448756687 -69.30962481477872,45.04650206656061,148.636328665899 -69.28430198974591,45.0285304700466,203.4857671454569 -69.26130784349266,45.00906282474162,175.4473377195768 -69.24081661924164,44.98824873939311,151.7237335880904 -69.22298281249209,44.96624800055965,137.2333918058642 -69.20794004210005,44.94322931456974,118.5535708913012 -69.19580010011515,44.91936898518078,97.10246889874989 -69.18665218539432,44.89484953816631,90.0403905571101 -69.18056232408749,44.86985830430516,88.49895917034895 -69.17757297823367,44.84458597237625,85.61272834862827 -69.17770284194937,44.81922512378072,84.78856817628638 -69.18094682305076,44.79396876032727,85.99094724131933 -69.18727620644634,44.76900883653413,86.76845863396979 -69.19663899427705,44.74453480753094,86.35711875861104 -69.20896041657333,44.72073220329612,92.43580691621753 -69.2241436051454,44.69778123954757,101.5971706725982 -69.24207042252138,44.67585547512876,109.7554661520071 -69.26260243699279,44.65512052520411,113.9151882269149 -69.28558203420873,44.63573283900995,97.54064235554273 -69.31083365526898,44.61783855030282,75.22898608863973 -69.33816515088752,44.60157240801814,106.0744140915948 -69.36736924091869,44.58705679400092,99.65435687934765 -69.39822506834325,44.57440083400466,74.0342930492134 -69.43049983668533,44.5636996074781,44.11793230575508 -69.46395051975998,44.55503346097596,50.59422981673256 -69.49832563261987,44.54846742934224,58.33930237036241 -69.53336705256773,44.54405076812456,61.71159685838542 -69.56881187911353,44.54181659998819,56.71534939243908 -69.60439432177813,44.54178167720796,50.75550273449727 -69.63984760466484,44.54394626162642,46.96127651150293 -69.67490587673534,44.54829412277792,45.84613501165636 -69.70930611673197,44.55479265418975,53.5401939433765 -69.74279002168318,44.56339310718226,96.93430699458222 -69.77510586791441,44.57403094080149,128.1732549585298 -69.80601033346613,44.58662628582778,113.3682285824748 -69.83527027079958,44.60108452011426,80.36455827023917 -69.86266441865631,44.61729695181776,83.78762919689247 -69.88798504193994,44.63514160639612,119.4407186237121 -69.91103948851826,44.65448411255722,107.9623052445643 -69.93165165191361,44.6751786816616,117.2432871560011 -69.94966332897387,44.69706917440406,106.8831430241831 -69.96493546180871,44.71999024793326,93.28322161219145 -69.97734925355269,44.74376857591687,151.6077494788356 -69.98680714789123,44.76822413342964,206.2513597250395 -69.99323366277372,44.79317153793757,207.355052134838 -69.99657606935158,44.81842143708079,220.7981110894985 -69.9968049079295,44.84378193342983,219.8386555400244 -69.99391433361556,44.86906003591115,212.3740643719244 -69.98792228540361,44.894063127179,188.2170725127089 -69.97887047362455,44.91860043585993,162.9835881927475 -69.96682418205756,44.94248450232387,165.8043185310123 -69.95187188249311,44.96553262645035,161.9062581701817 -69.9341246611753,44.98756828576913,151.6060392085919 -69.91371545830535,45.00842251236973,184.0710343912826 -69.89079812364028,45.02793521709937,153.366729483617 -69.86554629314605,45.04595644981288,154.9131061307779 -69.8381520936309,45.06234758479936,248.3284358144417 -69.80882468426167,45.07698242099748,347.7901319371468 -69.77782355184429,45.08973524636734,415.1980041912953 
				</coordinates>
			</LineString>
		</Placemark>
		<Placemark>
			<name>Winthrop</name>
			<styleUrl>#inline34</styleUrl>
			<LineString>
				<tessellate>1</tessellate>
				<coordinates>
					-70.42218034548789,44.35634606104099,264.7216320397746 -70.41929513609512,44.38266861655547,258.1866273426834 -70.41320686290165,44.40871101049356,315.3988830812046 -70.40395773986613,44.43427453754314,257.644879290788 -70.39161433598144,44.45916388778106,245.4749217674952 -70.37626718678459,44.4831886553217,287.0245788587652 -70.3580302112907,44.50616481670396,206.6625458557819 -70.33703993540442,44.52791616690764,284.9677176251842 -70.31345452478439,44.54827570100996,328.7428696361401 -70.28745263213764,44.56708692973596,238.1501939912386 -70.25923206597159,44.5842051175268,211.0601103636352 -70.22900828989317,44.59949843224629,200.3395911481409 -70.19701276358398,44.61284899627483,188.1108649516512 -70.16349113855208,44.62415382949172,129.3470342732492 -70.12870132362865,44.63332567552182,131.2387791591822 -70.09291143689653,44.64029370360986,118.0010077690484 -70.05639766227191,44.64500407957712,106.0785340901404 -70.01944203027219,44.6474204004957,115.9919003364436 -69.98233014356205,44.6475239889724,128.6580784979466 -69.94534886864955,44.64531404424955,136.4210398769085 -69.90878401558579,44.64080764868488,134.5779682572404 -69.87291802769344,44.63403962954863,86.93646276717647 -69.83319855764152,44.6307453157631,84.61852806237579 -69.75394228373071,44.61309567682255,95.44821361731178 -69.58644980295624,44.58910633139016,57.98274734592631 -69.42304324418753,44.5648743848511,45.43676305294176 -69.45828956234278,44.48333939195185,47.66904189593728 -69.46219821151942,44.39176233789323,109.521422820916 -69.4345351666328,44.32334462674748,106.3884592599794 -69.4229962100914,44.29718147019518,97.4491723246618 -69.55233074019698,44.2549951218983,87.53438036856856 -69.59512609465926,44.23240758048217,79.56133028883968 -69.62397803139389,44.20578854367802,78.20456240786444 -69.64240976564538,44.18293050355235,93.48020721810633 -69.6635347599516,44.16130758182772,96.78037330003626 -69.68719079190666,44.14108290005427,72.49408116335017 -69.71319709699911,44.1224088711273,54.51648928333994 -69.74135576391633,44.1054260849076,56.77226856997571 -69.77145323828839,44.09026228430677,51.16938794935321 -69.80326192363258,44.07703143826856,44.2597686404463 -69.83654186814474,44.06583291737418,46.68735214642366 -69.87104252592447,44.05675077709158,47.57786783608275 -69.90650458120281,44.04985315297501,51.78516439588424 -69.94266182415035,44.04519177140818,52.42248992231877 -69.97924306686809,44.04280157876989,56.96068676744567 -70.01597408819381,44.04270049118792,65.39606239654131 -70.05257959598451,44.0448892663347,71.69357696654838 -70.08878519555407,44.0493514980069,65.19375194634084 -70.12431935295352,44.05605373352032,62.8971285914991 -70.15891534177422,44.06494571324058,67.67460093384895 -70.19231316213686,44.07596073085893,74.33722542292027 -70.22426142050124,44.08901611231019,74.62064744208315 -70.25451915890207,44.10401381051678,103.4249145775794 -70.28285762219035,44.12084111242891,130.7295945254919 -70.30906195184876,44.13937145411688,156.5617342408595 -70.33293279496517,44.15946533895901,143.3845981687235 -70.35428781700318,44.18097135325881,136.5843778109442 -70.37296310711787,44.20372727292264,145.041408963862 -70.38881446494375,44.22756125413467,141.1996288196474 -70.4017185580461,44.25229310028774,143.5278281086652 -70.41157393959242,44.27773559676945,173.4733986113483 -70.41830191628314,44.30369590457001,182.4190685307429 -70.42184725719345,44.3299770030802,227.3328836705846 -70.42218034548789,44.35634606104099,264.7216320397746 
				</coordinates>
			</LineString>
		</Placemark>
		<Placemark>
			<name>Warren</name>
			<styleUrl>#inline6</styleUrl>
			<LineString>
				<tessellate>1</tessellate>
				<coordinates>
					-69.6296653383001,44.19463410932664,83.46367324427581 -69.60346733279663,44.214205437389,68.37670423824991 -69.57497221606947,44.23205871656547,68.03576241516939 -69.54439744021194,44.24805645282591,66.93535486243525 -69.51197706657608,44.2620753350392,72.9300321374007 -69.47795994382642,44.27400722163775,98.40797080528627 -69.44260775014291,44.28376000855764,122.2518013786031 -69.40619291639898,44.29125837042352,126.283107394173 -69.36899644875197,44.29644436805508,125.9661271409483 -69.33130567047273,44.29927791657678,133.741430958532 -69.29341190397398,44.29973710969681,157.33509759784 -69.25560811484563,44.29781839707033,168.7316455440388 -69.21818654024923,44.29353661305424,87.62180999025115 -69.18143632424831,44.28692485657914,181.9807513987358 -69.14564118255151,44.27803422328519,234.0277904220267 -69.11107711872418,44.26693339247397,285.1868866493452 -69.07801021319011,44.25370807279595,305.4277647832693 -69.04669450531954,44.23846031190507,78.51385344046547 -69.01736998760569,44.221307676549,-24.69615751947135 -68.99026072940129,44.20238231071059,-41.16325452286844 -68.96557314595681,44.18182988045951,-9.211822353838039 -68.94349442661124,44.15980841509984,-9.040629097239099 -68.92419113397661,44.13648705500417,-0.5006196965684079 -68.90780798387313,44.11204471719795,-2.642984461444851 -68.89446681365237,44.08666869029916,-0.3835480430269025 -68.88426574443299,44.06055317082617,-0.5007791181465796 -68.87727854070459,44.03389775316246,-0.5002957252397717 -68.87355416876088,44.00690588561627,-6.802665770144576 -68.87311655353605,43.97978330504018,-18.9830598682824 -68.87596453165651,43.95273646239041,-43.26784190764064 -68.88207199690629,43.92597095141407,-37.53047521577409 -68.89138823284813,43.89968995236703,-15.10200990278711 -68.90383842605135,43.87409270229447,-7.458524209587775 -68.9193243522556,43.84937300296023,-1.768306970461471 -68.93772522684161,43.82571777700274,-30.42793441502442 -68.95889871018251,43.80330568233096,-41.81432108468123 -68.98268205780091,43.78230579416607,-50.6542865831413 -69.00889340474545,43.76287636349044,-65.15421181259805 -69.03733317321279,43.74516365999308,-81.97157525947725 -69.06778559215952,43.72930090690677,-92.58962823142087 -69.10002031745911,43.71540731442371,-97.24921157793857 -69.1337941410427,43.70358721765663,-100.8586550662034 -69.16885277740516,43.69392932438635,-102.6730137270121 -69.20493271584385,43.68650607710804,-104.1988348440157 -69.24176312681054,43.68137313315661,-104.7624740515317 -69.2790678107885,43.67856896596301,-102.1672222644378 -69.31656717814263,43.67811458976177,-95.91474727320066 -69.35398024842333,43.68001340934394,-91.31378929500998 -69.39102665762901,43.68425119572154,-98.06739402139964 -69.42742866194307,43.69079618784327,-103.968159563644 -69.46291312645508,43.69959931977606,-101.6130001741996 -69.49721348735855,43.71059457203942,-96.72101148736327 -69.53007167608629,43.72369944505235,-72.95078280718897 -69.56123999380878,43.73881555192389,-46.23099913757559 -69.59048292468721,43.75582932708792,-12.83835280525673 -69.6175788762509,43.77461284655223,-4.624516286195317 -69.64232183527079,43.79502475480228,-0.5005429651751964 -69.66452292753952,43.81691129267181,-0.5006442391427649 -69.68401187006067,43.84010741977069,-0.5006678710806169 -69.70063830430841,43.86443802434639,-1.145344563101435 -69.71427299946339,43.88971921275573,-0.5007474646765911 -69.72480891487487,43.91575967004169,3.041852271270567 -69.73216211146159,43.94236208245466,14.81867593495148 -69.73627250235756,43.96932461213414,33.0235133408475 -69.73710443384762,43.99644241358522,48.85033604651397 -69.73464708853277,44.02350918105272,46.78707848229531 -69.72891470372373,44.05031871542496,55.22278694124421 -69.71994659928642,44.07666649889782,59.1848694840041 -69.70780701055629,44.1023512653106,55.42807037887388 -69.69258472349317,44.12717655383571,59.15350080389863 -69.67439251095365,44.15095223357708,84.73315370873503 -69.6533663708007,44.17349598661514,102.0103884999458 -69.6296653383001,44.19463410932664,83.46367324427581 
				</coordinates>
			</LineString>
		</Placemark>
		<Placemark>
			<name>+Warren</name>
			<styleUrl>#inline43</styleUrl>
			<LineString>
				<tessellate>1</tessellate>
				<coordinates>
					-68.96319074150162,44.10793305710085,-66.37549192996313 -68.95950366933782,44.11497934058263,-59.81491735432013 -68.95497428393364,44.12176792364179,-53.04815498269439 -68.94963683787957,44.12824704351488,-51.33968127969387 -68.94353178401184,44.13436728045325,-47.98299753232514 -68.93670547272447,44.14008193716887,-44.19385949505058 -68.92920980270566,44.14534739783449,-40.00109355620748 -68.9211018276464,44.15012346379617,-35.02667990693898 -68.91244332185924,44.1543736633281,-7.757603246875777 -68.90330030811539,44.1580655329552,-9.148769919061332 -68.89374255135257,44.16117086808753,-6.67828389142127 -68.88384302222218,44.16366594094929,-0.3002259046569803 -68.87367733472531,44.16553168404313,4.568873573198128 -68.86332316243224,44.16675383766475,8.886738274836649 -68.85285963798272,44.16732306027107,8.330921211841334 -68.84236674072545,44.16723500080506,5.87305797707064 -68.83192467746753,44.1664903323891,3.540867797369866 -68.82161326137246,44.16509474711223,1.352096981333708 -68.81151129406243,44.16305891195389,-0.5006106758853318 -68.80169595594965,44.16039838620301,-4.246342878593872 -68.79224220974277,44.15713350104397,-9.163395190275109 -68.78322222194731,44.15328920228757,-9.221079909330813 -68.77470480700796,44.14889485752224,-20.78506646505567 -68.76675489852508,44.14398402924506,-51.35129058370137 -68.75943305172372,44.13859421580331,-67.91895377908428 -68.75279498106175,44.13276656222886,-69.05493679285382 -68.74689113654058,44.1265455432826,-62.65685496089844 -68.74176632192913,44.11997862123771,-50.72055346422788 -68.73745935773712,44.11311588112028,-34.88906292293554 -68.73400279137732,44.10600964629153,-39.67327911846431 -68.73142265654845,44.09871407739529,-43.53039888220322 -68.72973828344978,44.09128475780908,-44.79859174063405 -68.72896216101488,44.08377826882468,-44.98584378025318 -68.72909985192575,44.07625175784455,-47.0466266302881 -68.73014996074654,44.06876250291566,-47.26514577934474 -68.73210415510022,44.06136747692997,-45.40286604227289 -68.73494723940654,44.05412291480287,-42.10066947603138 -68.73865728030782,44.04708388689949,-37.86546549254362 -68.74320578253314,44.04030388191083,-33.78038796550057 -68.74855791359424,44.03383440229325,-36.36555949933371 -68.75467277536917,44.02772457527282,-35.27868405463035 -68.76150372031361,44.02202078228453,-32.72617312147867 -68.76899870974752,44.01676630956567,-5.969017699426036 -68.77710071139515,44.01200102245381,-0.5004795810506323 -68.78574813311074,44.00776106575558,-0.5005547885793349 -68.79487528950251,44.00407859235287,-3.076783388999677 -68.80441289796958,44.00098152200105,-12.26114762337914 -68.81428860049601,43.9984933320498,-23.91038051860903 -68.82442750739672,43.99663288158268,-35.27572663228747 -68.83475275908715,43.99541427022994,-37.58075914734327 -68.84518610184764,43.99484673265876,-39.2176119414084 -68.85564847347636,43.99493456949001,-40.17382214241309 -68.86606059467088,43.99567711513188,-36.72588526347496 -68.87634356194751,43.9970687427578,-29.57140863087131 -68.88641943789852,43.99909890639389,-21.72428517599205 -68.8962118346027,44.0017522198173,-16.85565271658144 -68.90564648604114,44.00500857170574,-26.29337126101821 -68.91465180543092,44.00884327622057,-27.83148171293954 -68.92315942347199,44.0132272579508,-28.82272718200598 -68.93110470360971,44.01812726989917,-26.09297789964099 -68.93842723054595,44.02350614294944,-23.46926549701132 -68.94507126838559,44.02932306502392,-20.97155961731688 -68.95098618498409,44.03553388791826,-17.27233257219414 -68.95612683926501,44.04209145959238,-12.88726139033298 -68.96045392850341,44.04894597950039,-16.08298168552006 -68.96393429282276,44.05604537436195,-35.2447866700765 -68.9665411744293,44.06333569161407,-49.33622326601767 -68.968254429406,44.07076150763581,-52.00529514920629 -68.96906069021071,44.0782663477125,-52.84218355422846 -68.96895347736516,44.0857931146001,-51.95815277620459 -68.96793325918495,44.09328452246698,-49.21820532377318 -68.96600745877994,44.10068353293017,-54.41884006826525 -68.96319074150162,44.10793305710085,-66.37549192996313 
				</coordinates>
			</LineString>
		</Placemark>
		<Placemark>
			<name>Searsport</name>
			<styleUrl>#inline30</styleUrl>
			<LineString>
				<tessellate>1</tessellate>
				<coordinates>
					-69.33843059704247,44.633692322412,62.72522194466982 -69.31217892391369,44.65061200999675,75.70579392371046 -69.28393961048883,44.6658326802868,88.59784689355723 -69.25392865245908,44.67923711250403,125.7775515959704 -69.22237619161368,44.69072199635551,142.295342306034 -69.18952471186627,44.70019875828183,131.6681809601179 -69.15562712214395,44.70759427167224,110.5961604015593 -69.12094474292969,44.71285144449422,111.8394084151437 -69.08574521454382,44.71592967887568,156.1913662315557 -69.05030034631946,44.71680519833992,124.5778009819483 -69.01488392664312,44.7154712396195,109.7647199934342 -68.97976951437785,44.7119381072403,64.57830043417549 -68.94522823244682,44.70623309036095,85.29215345056363 -68.91152658432526,44.6984002426524,69.41009920764975 -68.87892431386751,44.68850002729116,43.16507406283742 -68.84767232829302,44.67660883039952,27.35733204990251 -68.81801070328383,44.66281834747858,11.57832267648052 -68.7901667880283,44.64723484852934,76.14115960491253 -68.76435342670713,44.6299783286295,59.44413916841756 -68.74076731139054,44.61118155171382,30.27936263956616 -68.71958747963231,44.59098899618625,40.86744898518061 -68.70097396824592,44.5695557117619,40.88107044180618 -68.68506663286537,44.54704609759052,66.05811724862785 -68.6719841409696,44.52363261224814,81.38129609195862 -68.66182314411584,44.49949442659748,89.4277186474531 -68.65465763322258,44.47481603081137,86.8166843117708 -68.65053847889378,44.44978580703104,59.79064803110446 -68.64949315701156,44.42459457919609,48.50382715550245 -68.65152565816581,44.39943415154158,25.54163320195062 -68.6566165779553,44.37449584711887,21.12321800441397 -68.66472338379631,44.3499690574663,19.45666467894592 -68.67578085262303,44.32603981424463,19.10130685543511 -68.68970167276017,44.30288939326854,2.412875882349707 -68.70637720229314,44.28069296091859,0.2499246037232441 -68.72567837545125,44.25961827241701,-7.601754046144666 -68.74745674784589,44.23982443090396,-4.69344589179001 -68.77154567086104,44.22146071566686,-2.975681193959488 -68.79776158506394,44.20466548726102,-0.4423276360726017 -68.82590542217666,44.18956517662133,-0.5006114137416601 -68.85576410491237,44.1762733646089,3.143543586523375 -68.88711213381505,44.16488995776704,-3.842322987664441 -68.91971325013854,44.15550046538244,-34.80431037147254 -68.95332216374273,44.14817538226303,-53.3539049712566 -68.98768633496108,44.1429696809561,-38.90687687582118 -69.02254779939177,44.13992241643998,-46.64238079670436 -69.05764502457542,44.13905644563292,-15.5085612838912 -69.09271478753728,44.14037826337181,25.3707712633784 -69.12749406218474,44.14387795582348,72.59931760067883 -69.161721905558,44.14952927160176,94.14037498068186 -69.19514133193118,44.15728981017327,58.05216673446189 -69.22750116375195,44.16710132644552,54.76149466406954 -69.258557848395,44.17889014974045,62.20823803363204 -69.28807722968902,44.19256771466625,36.43754291170148 -69.31583626316888,44.20803120070991,56.37242282080948 -69.34162466400961,44.22516427668332,40.49066358588495 -69.36524647662941,44.24383794546873,80.85352373428921 -69.38652155501406,44.26391148382508,128.323873991431 -69.40528694293127,44.28523347134099,117.7987570667995 -69.42139814338084,44.30764290195211,184.956052816202 -69.43473026688231,44.33097037078824,87.15999121505617 -69.44517904854833,44.35503932848234,84.44629456926903 -69.45266172434449,44.37966739446349,102.8996119411715 -69.45711775750755,44.4046677201806,186.9482087814254 -69.45850940679415,44.42985039266441,158.37789268833 -69.45682212907306,44.45502386834578,156.167763864606 -69.45206480975858,44.47999642661348,133.559294425144 -69.44426981571844,44.50457763222512,96.81285895441579 -69.43349286657185,44.52857979539043,89.66308254593187 -69.41981272172136,44.55181941813326,65.60204812327497 -69.4033306820229,44.57411861542008,58.49277900469185 -69.38416990668094,44.59530649952249,63.93210994067477 -69.36247454774008,44.61522051616989,61.99704132474918 -69.33843059704247,44.633692322412,62.72522194466982 
				</coordinates>
			</LineString>
		</Placemark>
		<Placemark>
			<name>Orono</name>
			<styleUrl>#inline7</styleUrl>
			<LineString>
				<tessellate>1</tessellate>
				<coordinates>
					-69.15170749971226,45.10342148440579,152.3108088736739 -69.1318234111429,45.1242133001275,163.2950853860291 -69.10943204177632,45.14369888877933,148.8854785006504 -69.08470294021318,45.16172854171668,106.5069376054535 -69.0578241566639,45.17816359867609,112.4412217988126 -69.02900081841014,45.19287754738072,100.7998286320269 -68.99845355301512,45.20575703045187,94.56669887696661 -68.96641677165798,45.21670275058246,96.97073491760352 -68.93313682673949,45.22563026574597,94.90960650367471 -68.89887005954324,45.23247066713817,89.87406089041227 -68.86388075519952,45.2371711335705,101.4456291011872 -68.8284390234568,45.23969535714058,96.15389570759844 -68.79281862478749,45.24002383618312,101.5471470357814 -68.75729476211579,45.23815403273945,109.5688416549465 -68.72214185893787,45.23410039305699,78.00950627925312 -68.68763134479671,45.22789423092426,67.54347469564415 -68.65402946896987,45.21958347494544,55.08190585574923 -68.62159516283205,45.20923228213916,52.31492499594449 -68.59057797067467,45.19692052149477,53.48154699947897 -68.56121606781809,45.18274313231548,43.20519895905018 -68.53373438366283,45.16680936330776,45.01446711293655 -68.5083428459199,45.14924189942382,50.5421722456656 -68.48523476067281,45.13017588441901,56.36666554597991 -68.46458534118725,45.1097578479356,68.64454796756652 -68.44655039653973,45.08814454666284,111.3422969761593 -68.43126518921892,45.06550172974519,122.5009145655461 -68.41884346890325,45.0420028391103,114.3950482379688 -68.4093766876706,45.01782765576994,122.0919523578529 -68.40293339998335,44.99316090340695,113.586830155465 -68.39955884894671,44.96819082070654,93.48879052515993 -68.3992747385844,44.94310771392511,86.34989697067941 -68.40207919023572,44.91810250111917,112.9872132355432 -68.40794687966795,44.89336525929187,203.8519940543738 -68.41682935013033,44.86908378545987,208.5462309416018 -68.42865549535723,44.84544218231176,187.1388516992826 -68.44333220546095,44.82261947872598,179.1315749598863 -68.46074516773822,44.80078829495481,146.275720313688 -68.48075981364278,44.78011356176657,216.4545684423888 -68.50322240254226,44.76075130228212,114.1095531002776 -68.52796123236912,44.74284748464991,107.2280524381149 -68.55478796688159,44.72653695308458,114.4909364123363 -68.58349906895626,44.7119424441533,105.5641081797046 -68.61387732912516,44.69917369453732,64.2370252232467 -68.64569347843229,44.68832664582761,94.89744161792795 -68.67870787460276,44.67948275123812,106.6231700139845 -68.71267225047869,44.67270838843897,84.89520416137066 -68.74733151366604,44.66805438202959,134.7121759789117 -68.78242558634641,44.66555563848689,96.86087683289728 -68.81769127422528,44.66523089574027,1.099193873961679 -68.8528641536076,44.66708258884082,35.11324527226427 -68.88768046560571,44.67109683250987,47.08115822855632 -68.92187900649209,44.67724352066802,65.00821761571846 -68.95520300320391,44.68547654236433,99.15684408617521 -68.98740196299642,44.69573411284112,79.76868038415202 -69.0182334862218,44.70793921778719,126.8652603467198 -69.04746503119253,44.72200016814797,112.7979858759326 -69.07487562007482,44.73781126217686,112.0408844985411 -69.10025747476077,44.75525355072837,90.33057051316064 -69.12341757169676,44.77419570111297,126.5639019763464 -69.14417910471369,44.79449495415483,136.4661444904202 -69.16238284502366,44.81599816842369,115.5585953874138 -69.17788838773477,44.83854294495104,100.1890360665139 -69.1905752745016,44.86195882509462,90.58478138519247 -69.20034398229329,44.88606855358898,99.72838581498351 -69.20711676873236,44.91068939821949,150.5574157173213 -69.21083836505423,44.93563451698888,121.2524500705877 -69.21147650846615,44.96071436311856,97.70456082105839 -69.20902230655719,44.98573811774828,109.3873695887985 -69.2034904274332,45.01051513977642,140.8972812445244 -69.19491911042306,45.03485642192895,166.9439146771007 -69.18336999352782,45.05857604186717,217.8322749142541 -69.16892775525167,45.08149259695079,207.8083268778962 -69.15170749971226,45.10342148440579,152.3108088736739 
				</coordinates>
			</LineString>
		</Placemark>
		<Placemark>
			<name>Lincoln</name>
			<styleUrl>#inline2</styleUrl>
			<LineString>
				<tessellate>1</tessellate>
				<coordinates>
					-68.71665751473525,45.69899306434673,147.3405102852618 -68.68213632031454,45.70671307798768,141.8148425692949 -68.64677535559372,45.71229169954387,136.6198389906388 -68.61084761789606,45.7156858250279,135.6681457378895 -68.57463068335427,45.71686922288102,135.1478101860005 -68.53840446611515,45.71583274605707,139.5226372290627 -68.50244895539008,45.71258440601348,171.5597677822327 -68.46704195179369,45.70714930790508,204.4986612214735 -68.43245682442291,45.69956944759757,195.8270878341068 -68.39896030983412,45.68990337242778,177.6831965919088 -68.36681037348252,45.67822570892111,160.9951928078966 -68.33625415331251,45.6646265619146,127.4244943813004 -68.30752600405023,45.64921079070803,115.4936468558972 -68.28084565937706,45.63209716896196,111.0740853057916 -68.25641652758999,45.61341743606725,109.6594810026411 -68.23442413461494,45.59331524861116,117.1800120713071 -68.21503472637322,45.57194504135664,124.9395767605272 -68.19839404054707,45.54947080782254,132.8307757593915 -68.18462625578981,45.52606481110276,133.717705606086 -68.17383312441537,45.5019062359894,123.925390986991 -68.16609329261864,45.47717979376791,114.8633896503592 -68.16146181035406,45.45207429123779,118.6164945439483 -68.15996983116368,45.42678117558138,121.1308863781689 -68.16162450052209,45.40149306666456,122.1153906374515 -68.16640902967158,45.37640228821454,133.588667954484 -68.17428295047338,45.35169940908744,149.1422828300424 -68.18518254550489,45.32757180552493,117.96831752028 -68.19902144649616,45.30420225491125,103.2760884959013 -68.21569139321907,45.28176757109056,111.4500875491956 -68.23506314411526,45.26043729079841,133.7102515916833 -68.25698752926826,45.2403724202108,170.3430785446277 -68.28129663577806,45.22172425002438,157.1897202962946 -68.30780511517214,45.20463324686458,104.7303356881397 -68.33631160217075,45.18922802817695,76.50268667492449 -68.36660023390047,45.17562442709899,62.98078922322988 -68.39844225850376,45.16392465314049,59.72060328879536 -68.43159772200821,45.15421655382234,61.18584413953091 -68.46581722228127,45.14657298174112,62.3902541038311 -68.50084371889336,45.14105127084314,55.71112132286652 -68.53641438772813,45.1376928250048,54.08812250505783 -68.57226250920742,45.13652282133221,48.70561911788489 -68.60811937902567,45.13755002990909,41.86503598666025 -68.64371623031275,45.14076675103802,46.81357614366019 -68.67878615615656,45.14614887033874,50.84684601837255 -68.7130660214174,45.15365603138407,59.10274536089226 -68.74629835275381,45.16323192487299,67.36713388350752 -68.77823319575711,45.17480469265592,87.53110372847624 -68.80862992806325,45.18828744424458,102.4517346199867 -68.83725901728303,45.2035788827528,105.7011126870144 -68.86390371257369,45.22056403653065,103.5702303934579 -68.88836165867679,45.23911509206784,96.06449221685298 -68.91044642128239,45.25909232306152,90.99145081551981 -68.92998891265985,45.2803451098639,101.6372909986337 -68.94683870663781,45.30271304285573,114.6932469333483 -68.9608652322337,45.32602710263262,149.0362270846945 -68.97195883554343,45.35011090924893,187.7773575692453 -68.98003169991803,45.37478203214418,194.7334747301106 -68.98501861499321,45.39985335178657,173.5539471548616 -68.98687758580958,45.42513446351392,153.0656705922741 -68.98559027407819,45.45043311354363,148.242908501037 -68.98116226461636,45.47555665666749,166.4921948111769 -68.9736231511051,45.50031352475592,184.7171685131263 -68.96302643660479,45.52451469487593,202.7791847203293 -68.9494492457038,45.54797514559084,193.1611709544743 -68.93299184675979,45.57051528986376,180.5604683663408 -68.91377698440915,45.59196237294113,168.8391210368444 -68.89194902434947,45.61215182365561,157.0084299169998 -68.86767291431947,45.63092854776422,151.7671886607581 -68.84113296718084,45.64814815223316,152.308409428625 -68.81253147401662,45.6636780898002,160.5994629643685 -68.78208715716318,45.67739871368678,156.1304400522928 -68.75003347505078,45.68920423299685,150.7454817533854 -68.71665751473525,45.69899306434673,147.3405102852618 
				</coordinates>
			</LineString>
		</Placemark>
		<Placemark>
			<name>Ellsworth</name>
			<styleUrl>#inline21</styleUrl>
			<LineString>
				<tessellate>1</tessellate>
				<coordinates>
					-68.13893429640105,44.78673910605191,118.695184636973 -68.10573628879384,44.77757945623475,107.7919804484042 -68.07380124796178,44.7663919052042,85.91688067217827 -68.04337468606052,44.7532627469669,79.14720236173869 -68.01469002902699,44.73829318741281,72.09844850583902 -67.98796678369651,44.72159853430001,70.27901072177245 -67.96340883163393,44.70330727705942,66.16814482219002 -67.94120286368349,44.68356006476573,52.3524337113714 -67.92151696746835,44.66250859143582,40.68646607387515 -67.90449937820026,44.64031439851545,32.77382557342708 -67.89027740123208,44.61714760499704,31.73743156927829 -67.878956512839,44.59318557607038,23.58216932234722 -67.870619643781,44.56861154154729,14.36852522177015 -67.86532664831377,44.54361317552168,5.169969470188698 -67.86311395950469,44.51838114883045,0.6554510110405397 -67.8639944300005,44.49310766587856,0.4649846603615935 -67.86795735580159,44.46798499728505,-0.5006264378277598 -67.87496867914099,44.44320401960741,-0.5005157140591355 -67.88497136525311,44.41895277311779,-0.5004377144311025 -67.89788594665409,44.39541504824344,-1.242101506646167 -67.91361122754256,44.37276901085712,-27.37476831580003 -67.93202514006516,44.35118587611837,-39.54725223579285 -67.95298574346761,44.33082864003327,-39.51224870546682 -67.97633235656191,44.31185087732673,-36.18252292568085 -68.00188681347085,44.29439561361497,-32.50386695739071 -68.02945483225039,44.27859427923291,-32.24689601975656 -68.05882748572432,44.26456575142012,-39.01115351926846 -68.0897827636791,44.2524154909011,-50.30018645556918 -68.12208721544584,44.2422347782189,-56.96884617391436 -68.15549766182713,44.23410005449745,-44.59418967309656 -68.18976296529411,44.22807237061912,-23.74222349052453 -68.22462584737413,44.2241969481144,-9.181041160322781 -68.25982474215914,44.22250285436873,-20.52558421004059 -68.29509567488056,44.22300279406127,-14.51466412133957 -68.33017415451306,44.22569301805876,-0.5003804038129945 -68.36479706937995,44.23055335029753,-0.5007103849176937 -68.39870457473494,44.23754733249663,-8.68339361843978 -68.43164196128923,44.24662248585443,-0.5005994501306569 -68.46336149363916,44.2577106881907,-2.14998653537647 -68.49362420753282,44.27072866430506,-6.995083233887378 -68.5222016548999,44.28557858663151,-1.263385729409263 -68.54887758556502,44.30214878257794,-0.4996747051329785 -68.57344955458062,44.32031454424984,5.356460692835227 -68.59573044416319,44.33993903557084,21.58262113287782 -68.61554988930791,44.36087429113208,44.9768856995422 -68.6327555963052,44.38296230042822,69.56202526168946 -68.64721454360429,44.40603617047856,55.67113825651911 -68.65881405477609,44.42992135918686,34.12349805658618 -68.66746273373577,44.45443697117273,50.62349731569336 -68.67309125290916,44.47939710721459,89.91937876847875 -68.67565298567584,44.50461225788837,84.2146762801852 -68.67512447520916,44.52989073147345,82.2094784579363 -68.67150573276508,44.55504010573829,92.34440935953954 -68.66482035955241,44.5798686928198,108.296469691571 -68.65511548754934,44.60418700608411,117.0602185698637 -68.6424615360108,44.62780921760886,206.5950380773801 -68.62695178193046,44.65055459476997,218.7610590351932 -68.60870174436909,44.67224890435555,158.1755004352133 -68.58784838431981,44.69272577267449,138.6944805365198 -68.56454912362847,44.71182799028487,167.3160030529586 -68.5389806883979,44.72940875024009,116.0992872284243 -68.51133778424936,44.74533280914538,85.92483016631084 -68.48183161275651,44.75947756083172,89.35095218411436 -68.45068824027345,44.77173401309054,109.7259347129155 -68.41814683221028,44.78200765866539,78.35911236539741 -68.38445776752776,44.7902192325615,64.33611737514482 -68.34988064979197,44.7963053487032,70.17244080669474 -68.31468223251395,44.80021901002979,78.22328345724203 -68.27913427766568,44.80192998726427,91.03995876514519 -68.2435113671858,44.80142506279694,114.0655114204992 -68.20808868794435,44.79870813738456,142.6900241924712 -68.17313981100665,44.79380019865757,121.5986910007887 -68.13893429640105,44.78673910605191,118.695184636973 
				</coordinates>
			</LineString>
		</Placemark>
		<Placemark>
			<name>Coastal Downeast - No-Grow Zone</name>
			<styleUrl>#msn_ylw-pushpin</styleUrl>
			<LineString>
				<tessellate>1</tessellate>
				<coordinates>
					-67.93836117999778,44.72780151458575,0 -67.84094666964671,44.48078350742028,0 -67.83288297327125,44.58836126981869,0 -67.80381147255427,44.56307263329316,0 -67.79183436311973,44.6090653812948,0 -67.76614211908731,44.55691401157339,0 -67.73122415038343,44.55076430639578,0 -67.71562185624174,44.52754581996932,0 -67.6021819499864,44.53580216061835,0 -67.56543299205606,44.59677706371745,0 -67.55918023876164,44.62741825468881,0 -67.51308343478878,44.63638891489968,0 -67.4920156983045,44.61883047240203,0 -67.4466595299274,44.60284396275384,0 -67.44568835944729,44.63545555292656,0 -67.44483797754205,44.66422092630528,0 -67.42619168567217,44.65628168465402,0 -67.401046112779,44.59642751753805,0 -67.38406601318414,44.62304458599715,0 -67.36354704931928,44.62977007816765,0 -67.34238771015447,44.6388335139657,0 -67.34119160010663,44.64194193553284,0 -67.3740717342631,44.6440093217625,0 -67.38230732221439,44.66133661302486,0 -67.38307815587457,44.67228543657333,0 -67.36619522640663,44.68608559131769,0 -67.35593756433761,44.69765282591369,0 -67.33050199450597,44.70195591709664,0 -67.30078032335537,44.70305692028649,0 -67.30580617083207,44.68360018293819,0 -67.30849880566396,44.66801361926517,0 -67.32832617725202,44.66675216776326,0 -67.3002142190863,44.65225674800645,0 -67.29417236198209,44.63496850103779,0 -67.27594342029897,44.62139120141572,0 -67.25930509786355,44.62738848065165,0 -67.2674549703713,44.64626601429288,0 -67.2690920119783,44.66348651241621,0 -67.24475942650855,44.66856583718322,0 -67.24531352452991,44.65139511178133,0 -67.23485996430622,44.63558179519611,0 -67.19517740513179,44.64039778587502,0 -67.1948866092556,44.64899633224513,0 -67.19337402392728,44.6614678010557,0 -67.16590985138814,44.6617819404479,0 -67.15353677087505,44.67018114570281,0 -67.14639888694363,44.68646353976978,0 -67.13295880656986,44.69403307478858,0 -67.11712796411442,44.70703486250768,0 -67.09769653092705,44.72856541937631,0 -67.10935551905024,44.74127086922434,0 -67.08083327792018,44.73919988527434,0 -67.07094275180296,44.73902361698593,0 -67.06323243135037,44.77090564387915,0 -67.05320882785226,44.77385209512806,0 -67.05139847394101,44.76288554304402,0 -67.03710511116917,44.76262720468647,0 -67.02239169696719,44.77407530337801,0 -67.00320556221496,44.78700461880294,0 -66.98090077513994,44.80340997231494,0 -66.9961439926666,44.84288384743442,0 -66.99286009582545,44.84887056735442,0 -66.97862804355437,44.85537949815351,0 -66.99381089399188,44.89342823598544,0 -66.9823788238547,44.89780977996273,0 -66.98122262363256,44.91061001971543,0 -66.99017085511034,44.91803318648798,0 -66.99770076074947,44.91768832703945,0 -67.01040693642726,44.92517767457803,0 -67.04620812495465,44.96500493047316,0 -67.05373341741513,44.96514896060774,0 -67.05973712136765,44.9693684845709,0 -67.04960870650832,44.97548385978379,0 -67.05830613810343,44.99039222802354,0 -67.09046745106689,44.95561909117949,0 -67.10810646089213,44.94158633219468,0 -67.12815890193325,44.92642114499144,0 -67.1620960225443,44.90327637888718,0 -67.1996218804628,44.88168436763412,0 -67.25745333495647,44.85471592456146,0 -67.32084760967521,44.83140661101675,0 -67.36590964814064,44.81964394769531,0 -67.39855477328813,44.81181571664831,0 -67.4543997469965,44.8026849760408,0 -67.49910837151404,44.79855541318798,0 -67.54306425840869,44.79542425223506,0 -67.60926915180231,44.79655251147415,0 -67.65640850328575,44.78416672173325,0 -67.7099162065243,44.77288565001607,0 -67.93836117999778,44.72780151458575,0 
				</coordinates>
			</LineString>
		</Placemark>
		<Placemark>
			<name>Machias</name>
			<styleUrl>#inline91</styleUrl>
			<LineString>
				<tessellate>1</tessellate>
				<coordinates>
					-66.93802238596535,44.7406704910772,-80.88431939389557 -66.93716916205142,44.70907274538008,-50.52627682701056 -66.94019295496854,44.67754237238118,-54.74029744249843 -66.94706449095661,44.646319024975,-57.48092780716189 -66.95772547604815,44.61563963892445,-65.28099627473814 -66.97208921964697,44.58573665199187,-83.90599209475968 -66.99004145969539,44.55683626797168,-79.20060215011594 -67.01144137835718,44.52915677776222,-64.67303910840066 -67.03612279633307,44.50290694890978,-66.46089484513023 -67.0638955333132,44.47828449430766,-68.94329230840886 -67.09454692163413,44.45547462995223,-85.72157218820531 -67.12784345992789,44.43464873085553,-95.13035732256388 -67.16353259339876,44.41596309339588,-100.3470206560322 -67.20134460732136,44.39955781156512,-99.37656661588092 -67.24099462039108,44.38555577374503,-99.45059602595416 -67.28218466465685,44.37406178582295,-125.5751101486552 -67.32460583890095,44.36516182563911,-139.6880385804446 -67.36794052248464,44.35892243294756,-123.39149003573 -67.41186463683077,44.35539023826981,-125.5115017433839 -67.45604994185331,44.35459163322446,-104.2352554500798 -67.50016635475629,44.35653258412698,-67.25423242186108 -67.54388427869962,44.36119858986891,-63.85389671810525 -67.58687692886517,44.36855478430403,-56.43047456603112 -67.62882264344654,44.37854618258832,-51.1749208011443 -67.66940716703381,44.39109807013681,-44.79927062652149 -67.70832589377223,44.4061165320753,-45.75419686546005 -67.74528605754996,44.4234891202719,-38.07277614015889 -67.78000885632319,44.44308565423574,-34.73792037955328 -67.81223149753222,44.46475915136338,-25.36880981536914 -67.84170915141387,44.48834688120031,-0.5004272456518737 -67.8682167988929,44.51367153756478,0.789249737957773 -67.89155096065981,44.54054252155682,12.80322776443901 -67.91153129403426,44.56875732765035,28.86801753704006 -67.92800204429899,44.5981030242441,35.26785665456627 -67.94083333739148,44.62835781923499,37.32939867874587 -67.94992230118255,44.65929270038328,43.01981736893644 -67.95519400307957,44.69067313946864,58.60149982053441 -67.95660219238397,44.72226084850485,72.59397726990771 -67.95412983673044,44.75381557559545,83.7267504316257 -67.94778944305148,44.78509692738869,87.24526121057498 -67.93762315485671,44.8158662045408,90.41415038573737 -67.92370261919568,44.8458882361348,99.96896300690038 -67.90612861848319,44.87493319864397,110.6365719344202 -67.88503046439918,44.90277840478821,99.65149509862181 -67.86056515331155,44.92921004751987,92.1036051882873 -67.83291628508772,44.95402488440907,88.80898924324728 -67.80229274972262,44.97703184788359,85.75349782521026 -67.76892718888062,44.99805356712709,81.93680190421175 -67.73307424217488,45.01692778795463,83.11128903983321 -67.69500859074135,45.03350867767134,85.3176542326233 -67.6550228133455,45.0476680027755,75.39583506881822 -67.61342507283021,45.05929616838816,53.48201436985686 -67.57053665311253,45.06830310946968,61.72142971875783 -67.52668936910666,45.07461902520431,74.50022266418841 -67.48222287383641,45.07819494938521,105.9824253491313 -67.43748188855233,45.07900315119117,62.56548251470343 -67.39281338284749,45.07703736239254,58.0887735104582 -67.34856373253756,45.07231282873225,75.94702114722526 -67.30507588341648,45.06486618497102,83.73791266834232 -67.26268654890751,45.05475515483806,77.51153640320447 -67.22172346910415,45.04205807886102,65.57170321670056 -67.18250275775021,45.02687327473335,62.08546588408434 -67.14532636237016,45.0093182364911,47.03906558139843 -67.1104796610628,44.98952868028697,27.65782941841731 -67.07822921746178,44.96765744594842,6.947422920440924 -67.04882071309321,44.94387326477005,-0.5003675458521424 -67.02247707388315,44.91835940510351,-0.5005827704705692 -66.99939680494374,44.89131220826192,-0.5005325502127438 -66.9797525450566,44.86293952803969,-0.4459726257986843 -66.9636898495351,44.83345908776521,-0.2594725580817185 -66.95132620743834,44.80309676924809,-15.65319001532125 -66.94275029647955,44.7720848482623,-63.35271333824843 -66.93802238596535,44.7406704910772,-80.88431939389557 
				</coordinates>
			</LineString>
		</Placemark>
		<Placemark>
			<name>Princeton</name>
			<styleUrl>#inline25</styleUrl>
			<LineString>
				<tessellate>1</tessellate>
				<coordinates>
					-68.35470699984235,45.12215483512931,175.6920769508552 -68.34509626760249,45.15297690506099,168.6762734501176 -68.33170070377707,45.18308947721884,76.94790983767415 -68.3146169176206,45.21226207340648,104.7614002099876 -68.29397029933894,45.24027105977657,177.0438062687191 -68.26991421123174,45.26690139709829,185.1698092393263 -68.24262894032091,45.2919483339228,154.6705365511622 -68.21232041644382,45.31521902805827,119.121876407746 -68.17921870246849,45.33653408208497,129.2909687600786 -68.1435762660373,45.35572897912625,177.088920572083 -68.10566604500892,45.37265540574933,205.657821832042 -68.06577932149051,45.38718244969674,256.183388878795 -68.02422342197333,45.39919766114417,288.3427373664363 -67.98131926354183,45.40860796733466,251.7700560144037 -67.9373987683621,45.41534043173921,217.7592836680347 -67.89280217061199,45.41934285032738,189.7625146188026 -67.84787524164241,45.42058417907768,175.4929650568533 -67.80296646041316,45.41905478849387,187.5734142727313 -67.75842415709479,45.41476654259668,152.3186599694959 -67.71459365814671,45.40775270160499,143.7053101848531 -67.67181446115725,45.39806764927471,126.6289680153779 -67.63041746726962,45.38578644760598,99.93748815054389 -67.59072229812479,45.37100422332535,105.2405817982616 -67.55303472295824,45.35383539217968,103.730428767228 -67.51764421982391,45.33441272861238,81.04323701407077 -67.4848216929305,45.31288628981365,78.50477288339326 -67.45481736581449,45.28942220442197,71.33325720510203 -67.4278588675962,45.26420133729243,64.37463553892667 -67.40414952693197,45.23741784272448,60.83535671870022 -67.38386688554527,45.20927761935216,61.15720713101332 -67.36716144045573,45.17999668053901,60.87984143659251 -67.35415562128078,45.14979945458818,61.98631200009506 -67.34494300631522,45.11891702937999,73.60529758901501 -67.33958777854407,45.08758535618898,84.6477266319597 -67.33812442035313,45.05604342742289,75.42102195886497 -67.34055764350069,45.02453144287435,64.49977101113659 -67.34686254892735,44.99328897879867,68.64356191109829 -67.35698500922179,44.96255317373976,63.6427960509247 -67.37084226503868,44.93255694453585,66.34206789865485 -67.38832372547932,44.90352724536239,63.85845266086384 -67.40929196138919,44.87568338202514,51.07312722127037 -67.43358387969106,44.84923539301454,37.09413508765705 -67.46101206623581,44.82438250808787,22.58464257582985 -67.4913662842017,44.80131169436685,24.55823896608055 -67.52441511477903,44.78019629913772,33.92662890734286 -67.55990772672024,44.7611947977257,45.70286478702506 -67.59757576128916,44.74444965399314,65.88199955376476 -67.63713531918283,44.73008630018719,87.19866531861238 -67.67828903610197,44.71821224204131,100.8548099750811 -67.72072823378834,44.70891629422013,63.76006895725813 -67.76413513350927,44.70226795038842,45.72922848568755 -67.80818511913336,44.69831689138583,45.87941648444847 -67.85254903708984,44.6970926341959,43.11265076570453 -67.89689552062728,44.69860432361376,54.39722892628878 -67.94089332587306,44.70284066773576,61.17322091895979 -67.98421366723852,44.70977001761855,68.43363224881902 -68.02653253971222,44.71934059067867,67.17720145189909 -68.06753301553603,44.73148083662715,71.00469934736732 -68.10690750266738,44.74609994395316,75.26166653000875 -68.14435995230694,44.7630884841845,95.42946697664081 -68.1796080026178,44.78231919036011,126.5645649168895 -68.21238504559975,44.80364786534908,138.769201921287 -68.24244220392025,44.82691441484113,123.7554191269151 -68.26955020436544,44.85194399901842,111.7649167897732 -68.29350113447701,44.87854829609623,103.3534109035345 -68.31411006890883,44.90652687009639,141.5955665375553 -68.33121655209455,44.93566863439565,112.840484288838 -68.34468592398692,44.96575340177706,114.720201203152 -68.35441047593923,44.99655351091317,117.4259750805009 -68.36031042426919,45.02783551843508,125.6965753832817 -68.3623346897013,45.0593619449999,134.41487766086 -68.36046147174319,45.09089306307268,140.6073213877592 -68.35470699984235,45.12215483512931,175.6920769508552 
				</coordinates>
			</LineString>
		</Placemark>
		<Placemark>
			<name>Danforth</name>
			<styleUrl>#inline23</styleUrl>
			<LineString>
				<tessellate>1</tessellate>
				<coordinates>
					-68.37609295289946,45.90009818325119,172.5088959418954 -68.35198495246087,45.92125396510322,170.7795835538932 -68.32529984954394,45.94086138635598,170.0326690153043 -68.29624044648781,45.95876950086856,170.7690773875834 -68.26502848237774,45.97484030343243,161.39952274648 -68.23190293005396,45.98894983279153,150.3450887272583 -68.19711813530827,46.0009891660588,151.3882946465214 -68.16094181362251,46.01086529535029,210.9339634107789 -68.12365292172197,46.01850187845246,222.3926958786887 -68.08553942294485,46.02383985644336,229.9688105695314 -68.04689596692472,46.026837932396,238.7919213787524 -68.00802150530913,46.0274729065819,224.4075886430746 -67.96921686616533,46.02573986495145,174.0984129808704 -67.9307823103276,46.02165221907254,169.9107615044963 -67.89301509320612,46.01524159714177,169.3681298689397 -67.85620705549658,46.00655758712055,158.3460647613474 -67.82064226580688,45.99566733447126,154.2337922300221 -67.78659473745982,45.982654998354,151.1025435364148 -67.7543262406621,45.96762107147413,147.8700868574392 -67.72408422987348,45.95068157002354,148.3001128536715 -67.69609990460246,45.93196710132151,146.4687937189605 -67.67058642003181,45.91162181781502,139.8242580695192 -67.64773726188572,45.88980226703727,140.6818451247504 -67.62772479783101,45.8666761479326,154.3088952238854 -67.61069901550741,45.84242098463472,180.7760623505471 -67.59678645504995,45.81722272932648,208.0995133308764 -67.58608934174251,45.79127430621518,235.4253986833425 -67.57868492226811,45.76477410892856,210.7750924433757 -67.57462500593135,45.73792446377882,186.8291419565831 -67.57393571025351,45.71093007135953,164.1057998234338 -67.57661740850629,45.68399643884477,152.4973617094482 -67.58264487507435,45.6573283151563,146.2734099169928 -67.5919676230327,45.63112814086792,138.2166227956244 -67.60451042700076,45.60559452433219,134.1189262464269 -67.62017402319201,45.58092075505932,138.1345378199687 -67.63883597761216,45.55729336485819,141.414042997077 -67.66035171256596,45.53489074667751,143.4934641765637 -67.68455568099722,45.51388184047071,144.1109905817947 -67.71126267769964,45.49442489475908,151.0590758196371 -67.74026927607697,45.47666631189466,157.2405031589485 -67.77135537888644,45.46073958433002,161.4417744632827 -67.80428587124804,45.44676432849832,155.0540976652927 -67.8388123641279,45.43484542219227,154.1736555697764 -67.87467501648746,45.42507225061491,174.5131974542318 -67.91160442431583,45.41751806555615,201.2637384113819 -67.94932356481368,45.41223946143249,229.4991992455022 -67.9875497840605,45.40927597121296,253.4009078172864 -68.02599681656119,45.40864978454166,268.7656069918509 -68.06437682512241,45.41036558965867,232.9907763098238 -68.10240244954781,45.41441054001368,170.7994969309454 -68.13978885265858,45.42075434576071,123.8788057549988 -68.17625575214069,45.42934948961725,119.0212273620006 -68.21152942669191,45.44013156586417,115.1896134036925 -68.24534468489588,45.45301974055514,117.6809232296226 -68.27744678518957,45.467917330294,116.0532246720451 -68.30759329522566,45.48471249622446,105.2292980744211 -68.33555587887254,45.50327904916183,95.38841542918351 -68.36112199905284,45.52347736107787,86.25988715180711 -68.38409652461378,45.54515537743257,88.29424148724546 -68.4043032294642,45.56814972413084,95.88511211501867 -68.42158617232018,45.59228690217186,104.6363241628286 -68.4358109455946,45.61738456235878,114.9557932592703 -68.44686578226097,45.64325285175139,134.8625444451509 -68.45466250993879,45.6696958228815,166.6012493490982 -68.45913734200155,45.69651289611628,198.0541390599043 -68.46025149621605,45.72350036496005,193.1179719774342 -68.45799163229385,45.75045293353489,175.8405985825321 -68.45237010078316,45.77716527499025,158.2045810058501 -68.44342499695692,45.80343359916736,157.8859745880896 -68.43122001476138,45.82905721750041,163.3805372935818 -68.41584409747443,45.85384009288104,169.4620777672426 -68.39741088347499,45.87759236205913,175.7838891771247 -68.37609295289946,45.90009818325119,172.5088959418954 
				</coordinates>
			</LineString>
		</Placemark>
		<Placemark>
			<name>Smyrna Mills</name>
			<styleUrl>#inline39</styleUrl>
			<LineString>
				<tessellate>1</tessellate>
				<coordinates>
					-67.79248306485712,46.34422154857518,148.117152233901 -67.77885242770667,46.32080097762025,153.1576786238032 -67.76824000932623,46.29664811531597,157.4336830053072 -67.76072291267656,46.27194763588764,160.912609838701 -67.75635432208055,46.24688814792696,163.5679912374591 -67.75516322252683,46.22166074104108,165.9897881285501 -67.75715430964422,46.19645752135421,168.6832411449722 -67.76230808700149,46.17147014726365,170.497010689817 -67.77058114593676,46.14688837660475,171.4172478172804 -67.78190662183026,46.12289863605036,171.1936284997738 -67.79619481960825,46.09968262316956,168.9673292685382 -67.81333400030039,46.07741595110758,166.4238509934034 -67.83319131966653,46.05626684533346,163.5824533078824 -67.8556139092496,46.03639490134315,161.4263138707262 -67.88043008968995,46.01794991161089,158.7073794717762 -67.90745070573838,46.00107076946136,157.29932392112 -67.93647057211538,45.98588445689015,164.7051112680032 -67.96727001916749,45.97250512270454,174.6334501345732 -67.99961652715007,45.96103325668643,187.0088504625489 -68.03326643790598,45.95155496480618,197.4653993418083 -68.06796673269321,45.94414134983735,189.4034495076903 -68.10345686492983,45.93884800104397,191.4063730556308 -68.13947063665708,45.93571459593315,206.9107432992911 -68.17573810756146,45.93476461638875,223.0273898327393 -68.21198752543357,45.93600518082599,233.4100706063827 -68.24794726697063,45.93942699333211,225.130892102061 -68.28334777784372,45.94500441008543,217.4835960713389 -68.31792350095034,45.95269562267125,210.9944113897458 -68.35141478175552,45.9624429572396,206.3810613411196 -68.38356973959519,45.97417328777601,202.457042244371 -68.41414609377689,45.98779856107893,198.6830794000824 -68.44291293327423,46.0032164303616,204.5672793405236 -68.46965241877952,46.02031099371666,233.5869188696495 -68.49416140586828,46.03895363300271,263.0694789733298 -68.51625297804985,46.05900394803548,290.084434840023 -68.53575787854577,46.08031078029109,302.2941431550403 -68.55252582976843,46.10271331966308,293.4949773131996 -68.56642672967986,46.12604228715793,285.4733608827294 -68.57735171451459,46.15012118577356,277.6616687781803 -68.5852140777634,46.17476761118704,270.0103453534224 -68.58995003585422,46.19979461328744,262.5775766201614 -68.59151933164411,46.22501209903614,255.4199784927342 -68.58990566766407,46.25022826662811,257.8522934223993 -68.58511696204384,46.27525106047233,263.1467343450868 -68.57718542119304,46.29988963611776,268.6924808128109 -68.56616742462579,46.32395582393261,274.4473626015305 -68.55214321878799,46.34726558010911,280.4934176864448 -68.53521641836683,46.3696404134213,287.3710138720889 -68.51551331532039,46.39090877612242,281.4027757922257 -68.49318199773785,46.41090740743337,266.58687128813 -68.46839128260781,46.42948261825655,254.9641910967892 -68.44132946859902,46.44649150605138,242.5997310240738 -68.41220291701568,46.46180308923366,229.5875498152673 -68.38123447113676,46.47529935101207,216.0267238397901 -68.34866172614936,46.48687618324784,222.4569697305238 -68.3147351637961,46.49644422171761,231.0287131280751 -68.27971616763713,46.50392956506408,256.9143349006762 -68.24387493643636,46.50927437072971,299.5320760090908 -68.20748831458357,46.5124373222693,341.2021875525427 -68.17083755962429,46.51339396361931,353.9743885929218 -68.13420606785974,46.51213689714402,361.454049588549 -68.09787707957936,46.50867584356902,326.9531894405893 -68.06213138577996,46.50303756322925,292.8288153856749 -68.02724505820478,46.49526563938409,260.7966101835299 -67.99348722420066,46.48542012566649,231.3529482042347 -67.96111790725183,46.47357706101725,204.4600873431658 -67.93038595311987,46.45982785669182,180.3226027865166 -67.90152706032413,46.44427856109773,159.1241816168076 -67.87476193226583,46.42704900931074,141.0260300204171 -67.850294566663,46.40827186511366,129.2904172528358 -67.82831069616418,46.38809156429324,134.2171661275303 -67.80897639208341,46.36666316870674,141.3930468916315 -67.79248306485712,46.34422154857518,148.117152233901 
				</coordinates>
			</LineString>
		</Placemark>
		<Placemark>
			<name>New Sweden</name>
			<styleUrl>#inline14</styleUrl>
			<LineString>
				<tessellate>1</tessellate>
				<coordinates>
					-68.4399876890883,47.21463790091907,195.1933390131147 -68.39612464577736,47.22513961711027,197.7847746511822 -68.35106649519543,47.23298743453191,203.24837436584 -68.30516252602555,47.23812043342618,211.5426122034175 -68.25876898333615,47.24049875335152,198.8483172532654 -68.2122461432233,47.24010392142141,210.9426145737063 -68.16595534694423,47.23693900455214,216.3956298398881 -68.12025602432833,47.23102858418055,218.8230166908673 -68.07550273642416,47.22241855370752,222.7026827508779 -68.03204226703239,47.21117574071336,228.5055202186317 -67.99021079199521,47.19738735774711,243.9436151971181 -67.95033115388239,47.18116028718782,257.4980014967931 -67.91271026807009,47.16262020728296,237.8700248902996 -67.87763668419208,47.14191056796412,218.8393757899105 -67.84537832461157,47.11919142640372,203.8059635699608 -67.81618041897337,47.09463815348929,201.5669345566881 -67.7902636511181,47.06844002344219,196.7631392818839 -67.76782253173771,47.04079869968644,190.9415244171715 -67.74902400719328,47.01192663077474,184.1464041719009 -67.73400631196381,46.98204537070303,179.2535394669092 -67.72287806931064,46.95138383829448,176.2210317424097 -67.71571764197617,46.92017653051447,171.0680611847558 -67.71257273213588,46.88866170459968,169.3626196301083 -67.71346022742411,46.8570795437594,185.6795049525304 -67.71836628768624,46.82567032094479,199.2914179956547 -67.72724666519048,46.79467257480407,210.0947026829468 -67.74002724937303,46.76432131145525,218.0071774872054 -67.75660482579065,46.73484624513576,216.6963035022486 -67.77684803781231,46.70647009014146,210.9305675396186 -67.800598538682,46.67940691576094,202.5202512448962 -67.82767232091069,46.65386057516093,191.5294366994989 -67.85786120948897,46.63002321839333,182.7679745569307 -67.89093450512188,46.60807389888903,191.7144301644379 -67.9266407635543,46.5881772819835,200.3827623203186 -67.96470969704595,46.57048246319642,201.3400887506599 -68.00485418414357,46.55512190316307,203.7269296429683 -68.04677237405944,46.54221048529984,254.6058398000684 -68.09014987216966,46.53184470147659,305.7458273612615 -68.13466199337334,46.52410197017264,356.5886839646637 -68.17997607028217,46.51904009080599,355.8716544357221 -68.22575380341941,46.51669683715211,324.4120897395079 -68.27165364078509,46.51708969200238,274.9541622909606 -68.31733317427664,46.52021572445602,228.0075200791438 -68.36245154053336,46.52605161048708,214.8254971746323 -68.40667181379467,46.53455379667916,220.3846270602991 -68.44966337832368,46.54565880627071,238.4206763188609 -68.49110426785207,46.55928368590086,256.8735235601513 -68.53068345935668,46.57532659068651,274.37998914697 -68.56810310828935,46.59366750449377,279.5257165117777 -68.60308071216464,46.6141690914893,268.0763898766174 -68.63535118918082,46.63667767426762,256.387272658203 -68.66466885832548,46.66102433305016,250.8091926138119 -68.69080930722269,46.68702611964103,263.9759986661957 -68.71357113383571,46.71448737900494,276.2399579428059 -68.73277754807566,46.74320117050944,288.3430621407679 -68.7482778194084,46.77295078004994,298.9493365174123 -68.75994855672798,46.80351131345957,306.6867957915549 -68.76769480710169,46.83465136080566,313.8118463002494 -68.77145096051706,46.86613472039741,319.4272361320186 -68.77118144849628,46.89772217059136,323.4902720671402 -68.76688122541231,46.92917327678931,325.9699829558733 -68.75857602255579,46.96024822039774,315.684749294066 -68.74632236647578,46.99070963596688,308.7293464432731 -68.73020735485233,47.02032444227252,301.2676450661148 -68.71034818515035,47.04886565275613,294.5659989417404 -68.68689143354167,47.07611415051499,287.4807789741517 -68.6600120840402,47.10186041295005,280.0658523504284 -68.6299123104483,47.1259061712447,274.4347931467514 -68.59682001651592,47.14806599007652,269.2976885012887 -68.56098714262446,47.1681687533629,231.5672302558135 -68.52268775026681,47.18605904241652,213.9799682482422 -68.48221589854494,47.20159839363949,202.2175689450029 -68.4399876890883,47.21463790091907,195.1933390131147 
				</coordinates>
			</LineString>
		</Placemark>
		<atom:link rel="app" href="https://www.google.com/earth/about/versions/#earth-pro" title="Google Earth Pro 7.3.7.1094"></atom:link>
	</Folder>
</Document>
</kml>
